"STATION","DATE","REPORT_TYPE","SOURCE","AWND","BackupDirection","BackupDistance","BackupDistanceUnit","BackupElements","BackupElevation","BackupElevationUnit","BackupEquipment","BackupLatitude","BackupLongitude","BackupName","CDSD","CLDD","DSNW","DailyAverageDewPointTemperature","DailyAverageDryBulbTemperature","DailyAverageRelativeHumidity","DailyAverageSeaLevelPressure","DailyAverageStationPressure","DailyAverageWetBulbTemperature","DailyAverageWindSpeed","DailyCoolingDegreeDays","DailyDepartureFromNormalAverageTemperature","DailyHeatingDegreeDays","DailyMaximumDryBulbTemperature","DailyMinimumDryBulbTemperature","DailyPeakWindDirection","DailyPeakWindSpeed","DailyPrecipitation","DailySnowDepth","DailySnowfall","DailySustainedWindDirection","DailySustainedWindSpeed","DailyWeather","HDSD","HTDD","HeavyFog","HourlyAltimeterSetting","HourlyDewPointTemperature","HourlyDryBulbTemperature","HourlyPrecipitation","HourlyPresentWeatherType","HourlyPressureChange","HourlyPressureTendency","HourlyRelativeHumidity","HourlySeaLevelPressure","HourlySkyConditions","HourlyStationPressure","HourlyVisibility","HourlyWetBulbTemperature","HourlyWindDirection","HourlyWindGustSpeed","HourlyWindSpeed","MonthlyAverageRH","MonthlyDaysWithGT001Precip","MonthlyDaysWithGT010Precip","MonthlyDaysWithGT32Temp","MonthlyDaysWithGT90Temp","MonthlyDaysWithLT0Temp","MonthlyDaysWithLT32Temp","MonthlyDepartureFromNormalAverageTemperature","MonthlyDepartureFromNormalCoolingDegreeDays","MonthlyDepartureFromNormalHeatingDegreeDays","MonthlyDepartureFromNormalMaximumTemperature","MonthlyDepartureFromNormalMinimumTemperature","MonthlyDepartureFromNormalPrecipitation","MonthlyDewpointTemperature","MonthlyGreatestPrecip","MonthlyGreatestPrecipDate","MonthlyGreatestSnowDepth","MonthlyGreatestSnowDepthDate","MonthlyGreatestSnowfall","MonthlyGreatestSnowfallDate","MonthlyMaxSeaLevelPressureValue","MonthlyMaxSeaLevelPressureValueDate","MonthlyMaxSeaLevelPressureValueTime","MonthlyMaximumTemperature","MonthlyMeanTemperature","MonthlyMinSeaLevelPressureValue","MonthlyMinSeaLevelPressureValueDate","MonthlyMinSeaLevelPressureValueTime","MonthlyMinimumTemperature","MonthlySeaLevelPressure","MonthlyStationPressure","MonthlyTotalLiquidPrecipitation","MonthlyTotalSnowfall","MonthlyWetBulb","NormalsCoolingDegreeDay","NormalsHeatingDegreeDay","REM","REPORT_TYPE","SOURCE","ShortDurationEndDate005","ShortDurationEndDate010","ShortDurationEndDate015","ShortDurationEndDate020","ShortDurationEndDate030","ShortDurationEndDate045","ShortDurationEndDate060","ShortDurationEndDate080","ShortDurationEndDate100","ShortDurationEndDate120","ShortDurationEndDate150","ShortDurationEndDate180","ShortDurationPrecipitationValue005","ShortDurationPrecipitationValue010","ShortDurationPrecipitationValue015","ShortDurationPrecipitationValue020","ShortDurationPrecipitationValue030","ShortDurationPrecipitationValue045","ShortDurationPrecipitationValue060","ShortDurationPrecipitationValue080","ShortDurationPrecipitationValue100","ShortDurationPrecipitationValue120","ShortDurationPrecipitationValue150","ShortDurationPrecipitationValue180","Sunrise","Sunset","TStorms","WindEquipmentChangeDate"
"72408013739","2020-05-10T23:59:00","SOD  ","6","","","","","","","","","","","","","","","27","52","38","30.09","30.08","42","14.1","0","-10.1","13","64","39","250","29","0.00","0","0.0","250","24","","","","","","","","","","","","","","","","","","","","","","","","","","","","","","","","","","","","","","","","","","","","","","","","","","","","","","","","","SOD73924 HR PRECIPITATION (IN): 0.00 SNOW DEPTH (IN):0     24 HR SNOWFALL (IN):0.0  24 HR MAX TEMP (F): 6424 HR MIN TEMP (F): 39AVERAGE STATION PRESSURE:30.080 MINIMUM SEA LEVEL PRESSURE:29.97 TIME OF OCCURRENCE:2359 PEAK WIND SPEED (MPH): 29 PEAK WIND DIR (DEG):250 PEAK WIND TIME (LST):      FASTEST 2MIN SPEED (MPH): 24FASTEST 2MIN DIR (DEG):250 FASTEST 2MIN TIME (LST):     AVERAGE WIND SPEED (MPH):14.1 24 HR AVG TEMP (F): 52DEPART FROM NORMAL:-10  HEATING DEGREE DAYS: 13 COOLING DEGREE DAYS:  0 LATEST DAY MAX TEMP (0700-1900 LST):64  LATEST NIGHT MIN TEMP(1900-0800 LST):39 HOURLY INCREMENTAL PRECIPITATION VALUES (IN):.00 0.00 0.00 0.00 0.00 0.00 0.00 0.00 0.00 0.00 0.00 0.00 0.00 0.00 0.00 0.00 0.00 0.00 0.00 0.00 0.00 0.00 0.00 0.00","SOD  ","6","","","","","","","","","","","","","","","","","","","","","","","","","0450","1905","","2009-07-30"
"72408013739","2020-05-11T23:59:00","SOD  ","6","","","","","","","","","","","","","","","37","55","57","29.91","29.88","45","14.2","0","-7.4","10","62","47","290","45","0.06","0","0.0","280","37","TS RA","","","","","","","","","","","","","","","","","","","","","","","","","","","","","","","","","","","","","","","","","","","","","","","","","","","","","","","","SOD75624 HR PRECIPITATION (IN): 0.06 SNOW DEPTH (IN):0     24 HR SNOWFALL (IN):0.0  WEATHER(CODE):3  24 HR MAX TEMP (F): 6224 HR MIN TEMP (F): 47AVERAGE STATION PRESSURE:29.885 MINIMUM SEA LEVEL PRESSURE:29.84 TIME OF OCCURRENCE:1403 PEAK WIND SPEED (MPH): 45 PEAK WIND DIR (DEG):290 PEAK WIND TIME (LST):      FASTEST 2MIN SPEED (MPH): 37FASTEST 2MIN DIR (DEG):280 FASTEST 2MIN TIME (LST):     AVERAGE WIND SPEED (MPH):14.2 24 HR AVG TEMP (F): 55DEPART FROM NORMAL: -7  HEATING DEGREE DAYS: 10 COOLING DEGREE DAYS:  0 LATEST DAY MAX TEMP (0700-1900 LST):62  LATEST NIGHT MIN TEMP(1900-0800 LST):47 HOURLY INCREMENTAL PRECIPITATION VALUES (IN):.00 0.00 0.00 0.00 0.00 0.00 0.02 0.02 0.00 0.00 0.00 0.00 T    T    0.02 T    0.00 0.00 0.00 0.00 0.00 0.00 0.00 0.00","SOD  ","6","","","","","","","","","","","","","","","","","","","","","","","","","0449","1906","","2009-07-30"
"72408013739","2020-05-12T23:59:00","SOD  ","6","","","","","","","","","","","","","","","26","52","39","30.09","30.05","41","13.3","0","-10.7","13","61","42","290","33","0.00","0","0.0","260","25","","","","","","","","","","","","","","","","","","","","","","","","","","","","","","","","","","","","","","","","","","","","","","","","","","","","","","","","","SOD73924 HR PRECIPITATION (IN): 0.00 SNOW DEPTH (IN):0     24 HR SNOWFALL (IN):0.0  24 HR MAX TEMP (F): 6124 HR MIN TEMP (F): 42AVERAGE STATION PRESSURE:30.050 MINIMUM SEA LEVEL PRESSURE:30.02 TIME OF OCCURRENCE:0038 PEAK WIND SPEED (MPH): 33 PEAK WIND DIR (DEG):290 PEAK WIND TIME (LST):      FASTEST 2MIN SPEED (MPH): 25FASTEST 2MIN DIR (DEG):260 FASTEST 2MIN TIME (LST):     AVERAGE WIND SPEED (MPH):13.3 24 HR AVG TEMP (F): 52DEPART FROM NORMAL:-11  HEATING DEGREE DAYS: 13 COOLING DEGREE DAYS:  0 LATEST DAY MAX TEMP (0700-1900 LST):61  LATEST NIGHT MIN TEMP(1900-0800 LST):42 HOURLY INCREMENTAL PRECIPITATION VALUES (IN):.00 0.00 0.00 0.00 0.00 0.00 0.00 0.00 0.00 0.00 0.00 0.00 0.00 0.00 0.00 0.00 0.00 0.00 0.00 0.00 0.00 0.00 0.00 0.00","SOD  ","6","","","","","","","","","","","","","","","","","","","","","","","","","0448","1907","","2009-07-30"
"72408013739","2020-05-13T23:59:00","SOD  ","6","","","","","","","","","","","","","","","29","54","39","30.28","30.24","44","7.4","0","-9.0","11","66","41","270","25","0.00","0","0.0","290","20","","","","","","","","","","","","","","","","","","","","","","","","","","","","","","","","","","","","","","","","","","","","","","","","","","","","","","","","","SOD73924 HR PRECIPITATION (IN): 0.00 SNOW DEPTH (IN):0     24 HR SNOWFALL (IN):0.0  24 HR MAX TEMP (F): 6624 HR MIN TEMP (F): 41AVERAGE STATION PRESSURE:30.240 MINIMUM SEA LEVEL PRESSURE:30.20 TIME OF OCCURRENCE:0009 PEAK WIND SPEED (MPH): 25 PEAK WIND DIR (DEG):270 PEAK WIND TIME (LST):      FASTEST 2MIN SPEED (MPH): 20FASTEST 2MIN DIR (DEG):290 FASTEST 2MIN TIME (LST):     AVERAGE WIND SPEED (MPH): 7.4 24 HR AVG TEMP (F): 54DEPART FROM NORMAL: -9  HEATING DEGREE DAYS: 11 COOLING DEGREE DAYS:  0 LATEST DAY MAX TEMP (0700-1900 LST):66  LATEST NIGHT MIN TEMP(1900-0800 LST):41 HOURLY INCREMENTAL PRECIPITATION VALUES (IN):.00 0.00 0.00 0.00 0.00 0.00 0.00 0.00 0.00 0.00 0.00 0.00 0.00 0.00 0.00 0.00 0.00 0.00 0.00 0.00 0.00 0.00 0.00 0.00","SOD  ","6","","","","","","","","","","","","","","","","","","","","","","","","","0447","1908","","2009-07-30"
"72408013739","2020-05-14T23:59:00","SOD  ","6","","","","","","","","","","","","","","","45","59","56","30.21","30.20","53","7.5","0","-4.3","6","74","44","230","30","T","0","0.0","240","22","","","","","","","","","","","","","","","","","","","","","","","","","","","","","","","","","","","","","","","","","","","","","","","","","","","","","","","","","SOD73924 HR PRECIPITATION (IN):    T SNOW DEPTH (IN):0     24 HR SNOWFALL (IN):0.0  24 HR MAX TEMP (F): 7424 HR MIN TEMP (F): 44AVERAGE STATION PRESSURE:30.200 MINIMUM SEA LEVEL PRESSURE:30.03 TIME OF OCCURRENCE:2359 PEAK WIND SPEED (MPH): 30 PEAK WIND DIR (DEG):230 PEAK WIND TIME (LST):      FASTEST 2MIN SPEED (MPH): 22FASTEST 2MIN DIR (DEG):240 FASTEST 2MIN TIME (LST):     AVERAGE WIND SPEED (MPH): 7.5 24 HR AVG TEMP (F): 59DEPART FROM NORMAL: -4  HEATING DEGREE DAYS:  6 COOLING DEGREE DAYS:  0 LATEST DAY MAX TEMP (0700-1900 LST):74  LATEST NIGHT MIN TEMP(1900-0800 LST):44 HOURLY INCREMENTAL PRECIPITATION VALUES (IN):.00 0.00 0.00 0.00 0.00 0.00 0.00 0.00 0.00 0.00 0.00 0.00 0.00 0.00 0.00 0.00 0.00 0.00 0.00 0.00 0.00 0.00 T    0.00","SOD  ","6","","","","","","","","","","","","","","","","","","","","","","","","","0446","1909","","2009-07-30"
"72408013739","2020-05-15T23:59:00","SOD  ","6","","","","","","","","","","","","","","","58","74","61","29.95","29.93","64","13.1","9","10.4","0","85","62","230","29","0.06","0","0.0","220","22","RA","","","","","","","","","","","","","","","","","","","","","","","","","","","","","","","","","","","","","","","","","","","","","","","","","","","","","","","","SOD73924 HR PRECIPITATION (IN): 0.06 SNOW DEPTH (IN):0     24 HR SNOWFALL (IN):0.0  24 HR MAX TEMP (F): 8524 HR MIN TEMP (F): 62AVERAGE STATION PRESSURE:29.935 MINIMUM SEA LEVEL PRESSURE:29.85 TIME OF OCCURRENCE:2037 PEAK WIND SPEED (MPH): 29 PEAK WIND DIR (DEG):230 PEAK WIND TIME (LST):      FASTEST 2MIN SPEED (MPH): 22FASTEST 2MIN DIR (DEG):220 FASTEST 2MIN TIME (LST):     AVERAGE WIND SPEED (MPH):13.1 24 HR AVG TEMP (F): 74DEPART FROM NORMAL: 10  HEATING DEGREE DAYS:  0 COOLING DEGREE DAYS:  9 LATEST DAY MAX TEMP (0700-1900 LST):85  LATEST NIGHT MIN TEMP(1900-0800 LST):62 HOURLY INCREMENTAL PRECIPITATION VALUES (IN):.00 0.00 0.01 0.00 0.04 0.01 T    0.00 0.00 0.00 0.00 0.00 0.00 0.00 0.00 0.00 0.00 0.00 0.00 0.00 0.00 0.00 0.00 0.00","SOD  ","6","","","","","","","","","","","","","","","","","","","","","","","","","0445","1910","","2009-07-30"
"72408013739","2020-05-16T23:59:00","SOD  ","6","","","","","","","","","","","","","","","53","70","54","30.05","29.98","60","7.3","5","6.1","0","79","60","350","21","0.00","0","0.0","360","17","","","","","","","","","","","","","","","","","","","","","","","","","","","","","","","","","","","","","","","","","","","","","","","","","","","","","","","","","SOD73924 HR PRECIPITATION (IN): 0.00 SNOW DEPTH (IN):0     24 HR SNOWFALL (IN):0.0  24 HR MAX TEMP (F): 7924 HR MIN TEMP (F): 60AVERAGE STATION PRESSURE:29.985 MINIMUM SEA LEVEL PRESSURE:29.89 TIME OF OCCURRENCE:0312 PEAK WIND SPEED (MPH): 21 PEAK WIND DIR (DEG):350 PEAK WIND TIME (LST):      FASTEST 2MIN SPEED (MPH): 17FASTEST 2MIN DIR (DEG):360 FASTEST 2MIN TIME (LST):     AVERAGE WIND SPEED (MPH): 7.3 24 HR AVG TEMP (F): 70DEPART FROM NORMAL:  6  HEATING DEGREE DAYS:  0 COOLING DEGREE DAYS:  5 LATEST DAY MAX TEMP (0700-1900 LST):79  LATEST NIGHT MIN TEMP(1900-0800 LST):68 HOURLY INCREMENTAL PRECIPITATION VALUES (IN):.00 0.00 0.00 0.00 0.00 0.00 0.00 0.00 0.00 0.00 0.00 0.00 0.00 0.00 0.00 0.00 0.00 0.00 0.00 0.00 0.00 0.00 0.00 0.00","SOD  ","6","","","","","","","","","","","","","","","","","","","","","","","","","0444","1911","","2009-07-30"
"72408013739","2020-05-11T06:39:00","FM-16","7","","","","","","","","","","","","","","","","","","","","","","","","","","","","","","","","","","","","","","29.92","46","50","T","-RA:02 |RA |RA","","","86","","BKN:07 50 OVC:08 70","29.89","7.00","48","240","","16","","","","","","","","","","","","","","","","","","","","","","","","","","","","","","","","","","","","","MET11405/11/20 06:39:02 SPECI KPHL 111139Z 24014KT 7SM -RA BKN050 OVC070 10/08 A2992 RMK AO2 RAB21 P0000 T01000078 (GAH)","FM-16","7","","","","","","","","","","","","","","","","","","","","","","","","","","","","2009-07-30"
"72408013739","2020-05-11T07:27:00","FM-16","7","","","","","","","","","","","","","","","","","","","","","","","","","","","","","","","","","","","","","","29.90","45","51","0.02","","","","80","","BKN:07 45 BKN:07 55 BKN:07 100","29.87","10.00","48","310","","7","","","","","","","","","","","","","","","","","","","","","","","","","","","","","","","","","","","","","MET12305/11/20 07:27:02 SPECI KPHL 111227Z 31006KT 10SM BKN045 BKN055 BKN100 11/07 A2990 RMK AO2 RAE26 VCSH P0002 T01060072 (GAH)","FM-16","7","","","","","","","","","","","","","","","","","","","","","","","","","","","","2009-07-30"
"72408013739","2020-05-11T14:08:00","FM-16","7","","","","","","","","","","","","","","","","","","","","","","","","","","","","","","","","","","","","","","29.86","32","59","T","TS:7 -RA:02 |RA TS TS |RA","","","36","","SCT:04 60 BKN:07 100","29.83","10.00","47","270","","22","","","","","","","","","","","","","","","","","","","","","","","","","","","","","","","","","","","","","MET15705/11/20 14:08:02 SPECI KPHL 111908Z 27019KT 10SM -TSRA SCT060CB BKN100 15/00 A2986 RMK AO2 RAB06 TSB08 OCNL LTGICCG VC W TS VC W MOV E P0000 T01500000 (SDK)","FM-16","7","","","","","","","","","","","","","","","","","","","","","","","","","","","","2009-07-30"
"72408013739","2020-05-11T14:12:00","FM-16","7","","","","","","","","","","","","","","","","","","","","","","","","","","","","","","","","","","","","","","29.88","38","56","T","TS:7 -RA:02 |RA TS TS |RA","","","51","","SCT:04 60 BKN:07 100","29.85","8.00","47","280","45","33","","","","","","","","","","","","","","","","","","","","","","","","","","","","","","","","","","","","","MET18205/11/20 14:12:02 SPECI KPHL 111912Z 28029G39KT 8SM -TSRA SCT060CB BKN100 13/03 A2988 RMK AO2 PK WND 29039/1910 RAB06 TSB08 PRESRR OCNL LTGICCG OHD TS OHD MOV E P0000 T01330033 (SDK)","FM-16","7","","","","","","","","","","","","","","","","","","","","","","","","","","","","2009-07-30"
"72408013739","2020-05-11T14:20:00","FM-16","7","","","","","","","","","","","","","","","","","","","","","","","","","","","","","","","","","","","","","","29.87","40","53","0.02","TS:7 -RA:02 |RA TS TS |RA","","","61","","FEW:02 40 BKN:07 60 BKN:07 100","29.84","10.00","47","280","39","11","","","","","","","","","","","","","","","","","","","","","","","","","","","","","","","","","","","","","MET18905/11/20 14:20:02 SPECI KPHL 111920Z 28010G34KT 10SM -TSRA FEW040 BKN060CB BKN100 12/04 A2987 RMK AO2 PK WND 29039/1910 RAB06 TSB08 OCNL LTGICCG VC SE TS VC SE MOV E P0002 T01170044 $ (SDK)","FM-16","7","","","","","","","","","","","","","","","","","","","","","","","","","","","","2009-07-30"
"72408013739","2020-05-11T14:33:00","FM-16","7","","","","","","","","","","","","","","","","","","","","","","","","","","","","","","","","","","","","","","29.86","43","55","0.02","","","","64","","FEW:02 40 BKN:07 60 BKN:07 100","29.83","10.00","49","250","","10","","","","","","","","","","","","","","","","","","","","","","","","","","","","","","","","","","","","","MET18805/11/20 14:33:02 SPECI KPHL 111933Z 25009KT 10SM FEW040 BKN060 BKN100 13/06 A2986 RMK AO2 PK WND 29039/1910 RAB06E24 TSB08E33 OCNL LTGICCG DSNT SE CB DSNT SE MOV E P0002 T01280061 $ (SDK)","FM-16","7","","","","","","","","","","","","","","","","","","","","","","","","","","","","2009-07-30"
"72408013739","2020-05-15T02:23:00","FM-16","7","","","","","","","","","","","","","","","","","","","","","","","","","","","","","","","","","","","","","","30.00","57","64","0.01","-RA:02 |RA |RA","","","78","","SCT:04 70 OVC:08 110","29.97","8.00","60","220","","8","","","","","","","","","","","","","","","","","","","","","","","","","","","","","","","","","","","","","MET11305/15/20 02:23:02 SPECI KPHL 150723Z 22007KT 8SM -RA SCT070 OVC110 18/14 A3000 RMK AO2 RAB16 P0001 T01780139 (DH)","FM-16","7","","","","","","","","","","","","","","","","","","","","","","","","","","","","2009-07-30"
"72408013739","2020-05-15T02:42:00","FM-16","7","","","","","","","","","","","","","","","","","","","","","","","","","","","","","","","","","","","","","","30.00","57","63","0.01","","","","81","","SCT:04 75 BKN:07 90 OVC:08 110","29.97","10.00","60","210","","7","","","","","","","","","","","","","","","","","","","","","","","","","","","","","","","","","","","","","MET12005/15/20 02:42:02 SPECI KPHL 150742Z 21006KT 10SM SCT075 BKN090 OVC110 17/14 A3000 RMK AO2 RAB16E40 P0001 T01720139 (DH)","FM-16","7","","","","","","","","","","","","","","","","","","","","","","","","","","","","2009-07-30"
"72408013739","2020-05-15T04:23:00","FM-16","7","","","","","","","","","","","","","","","","","","","","","","","","","","","","","","","","","","","","","","30.01","59","63","0.02","-RA:02 |RA |RA","","","87","","SCT:04 70 BKN:07 95 BKN:07 130","29.98","8.00","61","230","","17","","","","","","","","","","","","","","","","","","","","","","","","","","","","","","","","","","","","","MET12005/15/20 04:23:02 SPECI KPHL 150923Z 23015KT 8SM -RA SCT070 BKN095 BKN130 17/15 A3001 RMK AO2 RAB01 P0002 T01720150 (DH)","FM-16","7","","","","","","","","","","","","","","","","","","","","","","","","","","","","2009-07-30"
"72408013739","2020-05-15T04:52:00","FM-16","7","","","","","","","","","","","","","","","","","","","","","","","","","","","","","","","","","","","","","","30.02","61","63","0.03","-RA:02 |RA |RA","","","94","","SCT:04 70 BKN:07 85 OVC:08 130","29.99","10.00","62","220","","16","","","","","","","","","","","","","","","","","","","","","","","","","","","","","","","","","","","","","MET11105/15/20 04:52:02 SPECI KPHL 150952Z 22014KT 10SM -RA SCT070 BKN085 OVC130 17/16 A3002 RMK AO2 RAB01 P0003 (DH)","FM-16","7","","","","","","","","","","","","","","","","","","","","","","","","","","","","2009-07-30"
"72408013739","2020-05-10T00:54:00","FM-15","7","","","","","","","","","","","","","","","","","","","","","","","","","","","","","","","","","","","","","","30.16","20","40","0.00","","-0.00","0","45","30.16","CLR:00","30.13","10.00","33","250","","15","","","","","","","","","","","","","","","","","","","","","","","","","","","","","","","","","","","","","MET11405/10/20 00:54:02 METAR KPHL 100554Z 25013KT 10SM CLR 04/M07 A3016 RMK AO2 SLP213 T00441067 10072 20039 50000 (JC)","FM-15","7","","","","","","","","","","","","","","","","","","","","","","","","","","","","2009-07-30"
"72408013739","2020-05-10T01:54:00","FM-15","7","","","","","","","","","","","","","","","","","","","","","","","","","","","","","","","","","","","","","","30.15","23","39","0.00","","","","53","30.14","CLR:00","30.12","10.00","33","230","","9","","","","","","","","","","","","","","","","","","","","","","","","","","","","","","","","","","","","","MET09605/10/20 01:54:02 METAR KPHL 100654Z 23008KT 10SM CLR 04/M05 A3015 RMK AO2 SLP208 T00391050 (JC)","FM-15","7","","","","","","","","","","","","","","","","","","","","","","","","","","","","2009-07-30"
"72408013739","2020-05-10T02:54:00","FM-15","7","","","","","","","","","","","","","","","","","","","","","","","","","","","","","","","","","","","","","","30.14","21","40","0.00","","","","47","30.14","CLR:00","30.11","10.00","33","230","","16","","","","","","","","","","","","","","","","","","","","","","","","","","","","","","","","","","","","","MET09605/10/20 02:54:02 METAR KPHL 100754Z 23014KT 10SM CLR 04/M06 A3014 RMK AO2 SLP206 T00441061 (JC)","FM-15","7","","","","","","","","","","","","","","","","","","","","","","","","","","","","2009-07-30"
"72408013739","2020-05-10T03:54:00","FM-15","7","","","","","","","","","","","","","","","","","","","","","","","","","","","","","","","","","","","","","","30.15","24","40","0.00","","+0.01","5","53","30.15","CLR:00","30.12","10.00","34","240","","21","","","","","","","","","","","","","","","","","","","","","","","","","","","","","","","","","","","","","MET10205/10/20 03:54:02 METAR KPHL 100854Z 24018KT 10SM CLR 04/M04 A3015 RMK AO2 SLP209 T00441044 55004 (JC)","FM-15","7","","","","","","","","","","","","","","","","","","","","","","","","","","","","2009-07-30"
"72408013739","2020-05-10T04:54:00","FM-15","7","","","","","","","","","","","","","","","","","","","","","","","","","","","","","","","","","","","","","","30.15","23","40","0.00","","","","51","30.15","CLR:00","30.12","10.00","34","260","","16","","","","","","","","","","","","","","","","","","","","","","","","","","","","","","","","","","","","","MET09605/10/20 04:54:02 METAR KPHL 100954Z 26014KT 10SM CLR 04/M05 A3015 RMK AO2 SLP211 T00441050 (JC)","FM-15","7","","","","","","","","","","","","","","","","","","","","","","","","","","","","2009-07-30"
"72408013739","2020-05-10T05:54:00","FM-15","7","","","","","","","","","","","","","","","","","","","","","","","","","","","","","","","","","","","","","","30.17","23","42","0.00","","","","47","30.17","FEW:02 250","30.14","10.00","35","260","","17","","","","","","","","","","","","","","","","","","","","","","","","","","","","","","","","","","","","","MET09905/10/20 05:54:02 METAR KPHL 101054Z 26015KT 10SM FEW250 06/M05 A3017 RMK AO2 SLP217 T00561050 (DH)","FM-15","7","","","","","","","","","","","","","","","","","","","","","","","","","","","","2009-07-30"
"72408013739","2020-05-10T06:54:00","FM-15","7","","","","","","","","","","","","","","","","","","","","","","","","","","","","","","","","","","","","","","30.18","25","46","0.00","","-0.04","3","44","30.18","FEW:02 250","30.15","10.00","38","240","","15","","","","","","","","","","","","","","","","","","","","","","","","","","","","","","","","","","","","","MET11705/10/20 06:54:02 METAR KPHL 101154Z 24013KT 10SM FEW250 08/M04 A3018 RMK AO2 SLP220 T00781039 10078 20039 53012 (DH)","FM-15","7","","","","","","","","","","","","","","","","","","","","","","","","","","","","2009-07-30"
"72408013739","2020-05-10T07:54:00","FM-15","7","","","","","","","","","","","","","","","","","","","","","","","","","","","","","","","","","","","","","","30.20","25","50","0.00","","","","38","30.19","BKN:07 250","30.17","10.00","40","240","","18","","","","","","","","","","","","","","","","","","","","","","","","","","","","","","","","","","","","","MET09905/10/20 07:54:02 METAR KPHL 101254Z 24016KT 10SM BKN250 10/M04 A3020 RMK AO2 SLP224 T01001039 (DH)","FM-15","7","","","","","","","","","","","","","","","","","","","","","","","","","","","","2009-07-30"
"72408013739","2020-05-10T08:54:00","FM-15","7","","","","","","","","","","","","","","","","","","","","","","","","","","","","","","","","","","","","","","30.18","24","53","0.00","","","","32","30.18","BKN:07 250","30.15","10.00","41","240","","20","","","","","","","","","","","","","","","","","","","","","","","","","","","","","","","","","","","","","MET09905/10/20 08:54:02 METAR KPHL 101354Z 24017KT 10SM BKN250 12/M04 A3018 RMK AO2 SLP221 T01171044 (DH)","FM-15","7","","","","","","","","","","","","","","","","","","","","","","","","","","","","2009-07-30"
"72408013739","2020-05-10T09:54:00","FM-15","7","","","","","","","","","","","","","","","","","","","","","","","","","","","","","","","","","","","","","","30.16","25","55","0.00","","+0.02","8","31","30.16","BKN:07 250","30.13","10.00","43","240","","21","","","","","","","","","","","","","","","","","","","","","","","","","","","","","","","","","","","","","MET10505/10/20 09:54:02 METAR KPHL 101454Z 24018KT 10SM BKN250 13/M04 A3016 RMK AO2 SLP213 T01281039 58007 (DH)","FM-15","7","","","","","","","","","","","","","","","","","","","","","","","","","","","","2009-07-30"
"72408013739","2020-05-10T10:54:00","FM-15","7","","","","","","","","","","","","","","","","","","","","","","","","","","","","","","","","","","","","","","30.15","25","58","0.00","","","","28","30.15","SCT:04 250","30.12","10.00","44","250","","20","","","","","","","","","","","","","","","","","","","","","","","","","","","","","","","","","","","","","MET09905/10/20 10:54:02 METAR KPHL 101554Z 25017KT 10SM SCT250 14/M04 A3015 RMK AO2 SLP209 T01441039 (DH)","FM-15","7","","","","","","","","","","","","","","","","","","","","","","","","","","","","2009-07-30"
"72408013739","2020-05-10T11:54:00","FM-15","7","","","","","","","","","","","","","","","","","","","","","","","","","","","","","","","","","","","","","","30.13","24","60","0.00","","","","25","30.13","SCT:04 250","30.10","10.00","45","250","25","17","","","","","","","","","","","","","","","","","","","","","","","","","","","","","","","","","","","","","MET10205/10/20 11:54:02 METAR KPHL 101654Z 25015G22KT 10SM SCT250 16/M04 A3013 RMK AO2 SLP203 T01561044 (DH)","FM-15","7","","","","","","","","","","","","","","","","","","","","","","","","","","","","2009-07-30"
"72408013739","2020-05-10T12:54:00","FM-15","7","","","","","","","","","","","","","","","","","","","","","","","","","","","","","","","","","","","","","","30.10","23","62","0.00","","+0.06","8","22","30.10","SCT:04 250","30.07","10.00","45","230","24","17","","","","","","","","","","","","","","","","","","","","","","","","","","","","","","","","","","","","","MET12005/10/20 12:54:02 METAR KPHL 101754Z 23015G21KT 10SM SCT250 17/M05 A3010 RMK AO2 SLP192 T01671050 10167 20078 58021 (DH)","FM-15","7","","","","","","","","","","","","","","","","","","","","","","","","","","","","2009-07-30"
"72408013739","2020-05-10T13:54:00","FM-15","7","","","","","","","","","","","","","","","","","","","","","","","","","","","","","","","","","","","","","","30.07","25","62","0.00","","","","24","30.07","SCT:04 250","30.04","10.00","46","230","25","9","","","","","","","","","","","","","","","","","","","","","","","","","","","","","","","","","","","","","MET10305/10/20 13:54:02 METAR KPHL 101854Z 23008G22KT 10SM SCT250 17/M04 A3007 RMK AO2 SLP182 T01671039 (MLC)","FM-15","7","","","","","","","","","","","","","","","","","","","","","","","","","","","","2009-07-30"
"72408013739","2020-05-10T14:54:00","FM-15","7","","","","","","","","","","","","","","","","","","","","","","","","","","","","","","","","","","","","","","30.04","27","64","0.00","","","","25","30.04","SCT:04 250","30.01","10.00","48","230","25","21","","","","","","","","","","","","","","","","","","","","","","","","","","","","","","","","","","","","","MET10305/10/20 14:54:02 METAR KPHL 101954Z 23018G22KT 10SM SCT250 18/M03 A3004 RMK AO2 SLP172 T01781028 (MLC)","FM-15","7","","","","","","","","","","","","","","","","","","","","","","","","","","","","2009-07-30"
"72408013739","2020-05-10T15:54:00","FM-15","7","","","","","","","","","","","","","","","","","","","","","","","","","","","","","","","","","","","","","","30.02","26","63","0.00","","+0.08","6","25","30.02","SCT:04 250","29.99","10.00","47","220","","20","","","","","","","","","","","","","","","","","","","","","","","","","","","","","","","","","","","","","MET10605/10/20 15:54:02 METAR KPHL 102054Z 22017KT 10SM SCT250 17/M03 A3002 RMK AO2 SLP166 T01721033 56026 (MLC)","FM-15","7","","","","","","","","","","","","","","","","","","","","","","","","","","","","2009-07-30"
"72408013739","2020-05-10T16:54:00","FM-15","7","","","","","","","","","","","","","","","","","","","","","","","","","","","","","","","","","","","","","","30.01","28","63","0.00","","","","27","30.01","SCT:04 250","29.98","10.00","47","220","","15","","","","","","","","","","","","","","","","","","","","","","","","","","","","","","","","","","","","","MET10005/10/20 16:54:02 METAR KPHL 102154Z 22013KT 10SM SCT250 17/M02 A3001 RMK AO2 SLP161 T01721022 (MLC)","FM-15","7","","","","","","","","","","","","","","","","","","","","","","","","","","","","2009-07-30"
"72408013739","2020-05-10T17:54:00","FM-15","7","","","","","","","","","","","","","","","","","","","","","","","","","","","","","","","","","","","","","","30.00","27","62","0.00","","","","26","30.00","SCT:04 250","29.97","10.00","47","230","","17","","","","","","","","","","","","","","","","","","","","","","","","","","","","","","","","","","","","","MET10005/10/20 17:54:02 METAR KPHL 102254Z 23015KT 10SM SCT250 17/M03 A3000 RMK AO2 SLP158 T01671028 (MLC)","FM-15","7","","","","","","","","","","","","","","","","","","","","","","","","","","","","2009-07-30"
"72408013739","2020-05-10T18:54:00","FM-15","7","","","","","","","","","","","","","","","","","","","","","","","","","","","","","","","","","","","","","","30.01","28","60","0.00","","+0.01","5","30","30.01","SCT:04 250","29.98","10.00","46","220","","10","","","","","","","","","","","","","","","","","","","","","","","","","","","","","","","","","","","","","MET11805/10/20 18:54:02 METAR KPHL 102354Z 22009KT 10SM SCT250 16/M02 A3001 RMK AO2 SLP162 T01561022 10178 20156 55004 (MLC)","FM-15","7","","","","","","","","","","","","","","","","","","","","","","","","","","","","2009-07-30"
"72408013739","2020-05-10T19:54:00","FM-15","7","","","","","","","","","","","","","","","","","","","","","","","","","","","","","","","","","","","","","","30.01","31","56","0.00","","","","39","30.01","SCT:04 250","29.98","10.00","45","190","","7","","","","","","","","","","","","","","","","","","","","","","","","","","","","","","","","","","","","","MET09405/10/20 19:54:01 METAR KPHL 110054Z 19006KT 10SM SCT250 13/M01 A3001 RMK AO2 SLP162 T01331006","FM-15","7","","","","","","","","","","","","","","","","","","","","","","","","","","","","2009-07-30"
"72408013739","2020-05-10T20:54:00","FM-15","7","","","","","","","","","","","","","","","","","","","","","","","","","","","","","","","","","","","","","","30.01","33","54","0.00","","","","45","30.01","CLR:00","29.98","10.00","45","200","","7","","","","","","","","","","","","","","","","","","","","","","","","","","","","","","","","","","","","","MET09005/10/20 20:54:01 METAR KPHL 110154Z 20006KT 10SM CLR 12/01 A3001 RMK AO2 SLP163 T01220006","FM-15","7","","","","","","","","","","","","","","","","","","","","","","","","","","","","2009-07-30"
"72408013739","2020-05-10T21:54:00","FM-15","7","","","","","","","","","","","","","","","","","","","","","","","","","","","","","","","","","","","","","","30.01","33","53","0.00","","+0.00","8","47","30.01","CLR:00","29.98","10.00","44","210","","3","","","","","","","","","","","","","","","","","","","","","","","","","","","","","","","","","","","","","MET09605/10/20 21:54:01 METAR KPHL 110254Z 21003KT 10SM CLR 12/01 A3001 RMK AO2 SLP161 T01170006 58001","FM-15","7","","","","","","","","","","","","","","","","","","","","","","","","","","","","2009-07-30"
"72408013739","2020-05-10T22:54:00","FM-15","7","","","","","","","","","","","","","","","","","","","","","","","","","","","","","","","","","","","","","","29.99","35","51","0.00","","","","54","29.99","CLR:00","29.96","10.00","44","200","","5","","","","","","","","","","","","","","","","","","","","","","","","","","","","","","","","","","","","","MET09005/10/20 22:54:02 METAR KPHL 110354Z 20004KT 10SM CLR 11/02 A2999 RMK AO2 SLP155 T01060017","FM-15","7","","","","","","","","","","","","","","","","","","","","","","","","","","","","2009-07-30"
"72408013739","2020-05-10T23:54:00","FM-15","7","","","","","","","","","","","","","","","","","","","","","","","","","","","","","","","","","","","","","","29.98","39","50","0.00","","","","66","29.97","CLR:00","29.95","10.00","45","210","","3","","","","","","","","","","","","","","","","","","","","","","","","","","","","","","","","","","","","","MET10005/10/20 23:54:02 METAR KPHL 110454Z 21003KT 10SM CLR 10/04 A2998 RMK AO2 SLP150 T01000039 401780039","FM-15","7","","","","","","","","","","","","","","","","","","","","","","","","","","","","2009-07-30"
"72408013739","2020-05-11T00:54:00","FM-15","7","","","","","","","","","","","","","","","","","","","","","","","","","","","","","","","","","","","","","","29.94","40","49","0.00","","+0.06","8","71","29.94","CLR:00","29.91","10.00","45","200","","5","","","","","","","","","","","","","","","","","","","","","","","","","","","","","","","","","","","","","MET11405/11/20 00:54:02 METAR KPHL 110554Z 20004KT 10SM CLR 09/04 A2994 RMK AO2 SLP139 T00940044 10156 20094 58022 (LPA)","FM-15","7","","","","","","","","","","","","","","","","","","","","","","","","","","","","2009-07-30"
"72408013739","2020-05-11T01:54:00","FM-15","7","","","","","","","","","","","","","","","","","","","","","","","","","","","","","","","","","","","","","","29.91","40","49","0.00","","","","71","29.91","CLR:00","29.88","10.00","45","210","","3","","","","","","","","","","","","","","","","","","","","","","","","","","","","","","","","","","","","","MET09605/11/20 01:54:02 METAR KPHL 110654Z 21003KT 10SM CLR 09/04 A2991 RMK AO2 SLP127 T00940044 (LPA)","FM-15","7","","","","","","","","","","","","","","","","","","","","","","","","","","","","2009-07-30"
"72408013739","2020-05-11T02:54:00","FM-15","7","","","","","","","","","","","","","","","","","","","","","","","","","","","","","","","","","","","","","","29.88","41","49","0.00","","","","74","29.88","FEW:02 110","29.85","10.00","45","230","","5","","","","","","","","","","","","","","","","","","","","","","","","","","","","","","","","","","","","","MET09905/11/20 02:54:02 METAR KPHL 110754Z 23004KT 10SM FEW110 09/05 A2988 RMK AO2 SLP119 T00940050 (LPA)","FM-15","7","","","","","","","","","","","","","","","","","","","","","","","","","","","","2009-07-30"
"72408013739","2020-05-11T03:54:00","FM-15","7","","","","","","","","","","","","","","","","","","","","","","","","","","","","","","","","","","","","","","29.88","41","47","0.00","","+0.06","6","80","29.88","BKN:07 140 OVC:08 180","29.85","10.00","44","240","","5","","","","","","","","","","","","","","","","","","","","","","","","","","","","","","","","","","","","","MET11205/11/20 03:54:02 METAR KPHL 110854Z 24004KT 10SM BKN140 OVC180 08/05 A2988 RMK AO2 SLP119 T00830050 56020 (LPA)","FM-15","7","","","","","","","","","","","","","","","","","","","","","","","","","","","","2009-07-30"
"72408013739","2020-05-11T04:54:00","FM-15","7","","","","","","","","","","","","","","","","","","","","","","","","","","","","","","","","","","","","","","29.88","42","48","0.00","","","","80","29.87","FEW:02 90 FEW:02 130 OVC:08 160","29.85","10.00","45","250","","6","","","","","","","","","","","","","","","","","","","","","","","","","","","","","","","","","","","","","MET11305/11/20 04:54:02 METAR KPHL 110954Z 25005KT 10SM FEW090 FEW130 OVC160 09/06 A2988 RMK AO2 SLP116 T00890056 (LPA)","FM-15","7","","","","","","","","","","","","","","","","","","","","","","","","","","","","2009-07-30"
"72408013739","2020-05-11T05:54:00","FM-15","7","","","","","","","","","","","","","","","","","","","","","","","","","","","","","","","","","","","","","","29.88","44","49","0.00","","","","83","29.88","SCT:04 90 BKN:07 110 OVC:08 160","29.85","10.00","47","240","","7","","","","","","","","","","","","","","","","","","","","","","","","","","","","","","","","","","","","","MET11305/11/20 05:54:02 METAR KPHL 111054Z 24006KT 10SM SCT090 BKN110 OVC160 09/07 A2988 RMK AO2 SLP119 T00940067 (GAH)","FM-15","7","","","","","","","","","","","","","","","","","","","","","","","","","","","","2009-07-30"
"72408013739","2020-05-11T06:54:00","FM-15","7","","","","","","","","","","","","","","","","","","","","","","","","","","","","","","","","","","","","","","29.94","46","50","0.02","-RA:02 |RA |RA","-0.06","3","86","29.94","BKN:07 47 OVC:08 70","29.91","7.00","48","250","","20","","","","","","","","","","","","","","","","","","","","","","","","","","","","","","","","","","","","","MET15105/11/20 06:54:02 METAR KPHL 111154Z 25017KT 7SM -RA BKN047 OVC070 10/08 A2994 RMK AO2 RAB21 SLP138 P0002 60002 70002 T01000078 10100 20083 53019 (GAH)","FM-15","7","","","","","","","","","","","","","","","","","","","","","","","","","","","","2009-07-30"
"72408013739","2020-05-11T07:54:00","FM-15","7","","","","","","","","","","","","","","","","","","","","","","","","","","","","","","","","","","","","","","29.89","44","52","0.02","","","","75","29.89","SCT:04 37 BKN:07 80 OVC:08 100","29.86","10.00","48","260","","6","","","","","","","","","","","","","","","","","","","","","","","","","","","","","","","","","","","","","MET13005/11/20 07:54:02 METAR KPHL 111254Z 26005KT 10SM SCT037 BKN080 OVC100 11/07 A2989 RMK AO2 RAE26 SLP121 VCSH P0002 T01110067 (GAH)","FM-15","7","","","","","","","","","","","","","","","","","","","","","","","","","","","","2009-07-30"
"72408013739","2020-05-11T08:54:00","FM-15","7","","","","","","","","","","","","","","","","","","","","","","","","","","","","","","","","","","","","","","29.88","44","54","0.00","","","","69","29.88","SCT:04 50 OVC:08 75","29.85","10.00","49","240","","14","","","","","","","","","","","","","","","","","","","","","","","","","","","","","","","","","","","","","MET10605/11/20 08:54:02 METAR KPHL 111354Z 24012KT 10SM SCT050 OVC075 12/07 A2988 RMK AO2 SLP119 T01220067 (GAH)","FM-15","7","","","","","","","","","","","","","","","","","","","","","","","","","","","","2009-07-30"
"72408013739","2020-05-11T09:54:00","FM-15","7","","","","","","","","","","","","","","","","","","","","","","","","","","","","","","","","","","","","","","29.88","41","57","0.00","","+0.06","6","55","29.88","SCT:04 36 BKN:07 70 BKN:07 90","29.85","10.00","49","250","24","17","","","","","","","","","","","","","","","","","","","","","","","","","","","","","","","","","","","","","MET12805/11/20 09:54:02 METAR KPHL 111454Z 25015G21KT 10SM SCT036 BKN070 BKN090 14/05 A2988 RMK AO2 SLP117 60002 T01390050 56021 (GAH)","FM-15","7","","","","","","","","","","","","","","","","","","","","","","","","","","","","2009-07-30"
"72408013739","2020-05-11T10:54:00","FM-15","7","","","","","","","","","","","","","","","","","","","","","","","","","","","","","","","","","","","","","","29.87","36","58","0.00","","","","44","29.87","SCT:04 47 BKN:07 70 OVC:08 90","29.84","10.00","48","310","25","20","","","","","","","","","","","","","","","","","","","","","","","","","","","","","","","","","","","","","MET11605/11/20 10:54:02 METAR KPHL 111554Z 31017G22KT 10SM SCT047 BKN070 OVC090 14/02 A2987 RMK AO2 SLP114 T01440022 (GAH)","FM-15","7","","","","","","","","","","","","","","","","","","","","","","","","","","","","2009-07-30"
"72408013739","2020-05-11T11:54:00","FM-15","7","","","","","","","","","","","","","","","","","","","","","","","","","","","","","","","","","","","","","","29.85","34","60","0.00","","","","38","29.85","SCT:04 45 BKN:07 75","29.82","10.00","48","260","31","17","","","","","","","","","","","","","","","","","","","","","","","","","","","","","","","","","","","","","MET12705/11/20 11:54:02 METAR KPHL 111654Z 26015G27KT 10SM SCT045 BKN075 16/01 A2985 RMK AO2 PK WND 27027/1654 SLP108 T01560011 (SDK)","FM-15","7","","","","","","","","","","","","","","","","","","","","","","","","","","","","2009-07-30"
"72408013739","2020-05-11T12:54:00","FM-15","7","","","","","","","","","","","","","","","","","","","","","","","","","","","","","","","","","","","","","","29.86","34","58","T","-RA:02 |RA |RA","+0.01","5","41","29.86","SCT:04 55 BKN:07 90","29.83","10.00","47","270","26","20","","","","","","","","","","","","","","","","","","","","","","","","","","","","","","","","","","","","","MET16705/11/20 12:54:02 METAR KPHL 111754Z 27017G23KT 10SM -RA SCT055 BKN090 14/01 A2986 RMK AO2 PK WND 27027/1655 RAB43 SLP112 P0000 60002 T01440011 10161 20100 55005 (SDK)","FM-15","7","","","","","","","","","","","","","","","","","","","","","","","","","","","","2009-07-30"
"72408013739","2020-05-11T13:54:00","FM-15","7","","","","","","","","","","","","","","","","","","","","","","","","","","","","","","","","","","","","","","29.85","31","60","T","","","","33","29.84","SCT:04 60 BKN:07 100","29.82","10.00","47","280","28","20","","","","","","","","","","","","","","","","","","","","","","","","","","","","","","","","","","","","","MET12705/11/20 13:54:02 METAR KPHL 111854Z 28017G24KT 10SM SCT060 BKN100 16/M01 A2985 RMK AO2 RAE10 SLP106 VCSH P0000 T01561006 (SDK)","FM-15","7","","","","","","","","","","","","","","","","","","","","","","","","","","","","2009-07-30"
"72408013739","2020-05-11T14:54:00","FM-15","7","","","","","","","","","","","","","","","","","","","","","","","","","","","","","","","","","","","","","","29.85","41","58","0.02","","","","53","29.85","FEW:02 40 SCT:04 65 BKN:07 100","29.82","10.00","50","300","25","20","","","","","","","","","","","","","","","","","","","","","","","","","","","","","","","","","","","","","MET16005/11/20 14:54:02 METAR KPHL 111954Z 30017G22KT 10SM FEW040 SCT065 BKN100 14/05 A2985 RMK AO2 PK WND 29039/1910 RAB06E24 TSB08E33 SLP107 P0002 T01440050 $ (SDK)","FM-15","7","","","","","","","","","","","","","","","","","","","","","","","","","","","","2009-07-30"
"72408013739","2020-05-11T15:54:00","FM-15","7","","","","","","","","","","","","","","","","","","","","","","","","","","","","","","","","","","","","","","29.87","37","57","T","","-0.00","3","47","29.86","FEW:02 40 SCT:04 65 BKN:07 95","29.84","10.00","48","280","25","16","","","","","","","","","","","","","","","","","","","","","","","","","","","","","","","","","","","","","MET16305/11/20 15:54:02 METAR KPHL 112054Z 28014G22KT 10SM FEW040 SCT065 BKN095 14/03 A2987 RMK AO2 PK WND 28029/2015 RAB16E29 SLP113 P0000 60002 T01390028 53001 $ (SDK)","FM-15","7","","","","","","","","","","","","","","","","","","","","","","","","","","","","2009-07-30"
"72408013739","2020-05-11T16:54:00","FM-15","7","","","","","","","","","","","","","","","","","","","","","","","","","","","","","","","","","","","","","","29.89","31","57","0.00","","","","37","29.89","FEW:02 45 BKN:07 60 BKN:07 90","29.86","10.00","45","290","34","28","","","","","","","","","","","","","","","","","","","","","","","","","","","","","","","","","","","","","MET13705/11/20 16:54:02 METAR KPHL 112154Z 29024G30KT 10SM FEW045 BKN060 BKN090 14/M01 A2989 RMK AO2 PK WND 27032/2112 SLP122 T01391006 $ (SDK)","FM-15","7","","","","","","","","","","","","","","","","","","","","","","","","","","","","2009-07-30"
"72408013739","2020-05-11T17:54:00","FM-15","7","","","","","","","","","","","","","","","","","","","","","","","","","","","","","","","","","","","","","","29.93","30","53","0.00","","","","41","29.92","BKN:07 60 BKN:07 90","29.90","10.00","43","280","31","23","","","","","","","","","","","","","","","","","","","","","","","","","","","","","","","","","","","","","MET13005/11/20 17:54:02 METAR KPHL 112254Z 28020G27KT 10SM BKN060 BKN090 12/M01 A2993 RMK AO2 PK WND 27034/2204 SLP133 T01171011 $ (SDK)","FM-15","7","","","","","","","","","","","","","","","","","","","","","","","","","","","","2009-07-30"
"72408013739","2020-05-11T18:54:00","FM-15","7","","","","","","","","","","","","","","","","","","","","","","","","","","","","","","","","","","","","","","29.94","30","51","0.00","","-0.08","1","44","29.94","BKN:07 60","29.91","10.00","42","290","30","17","","","","","","","","","","","","","","","","","","","","","","","","","","","","","","","","","","","","","MET14705/11/20 18:54:02 METAR KPHL 112354Z 29015G26KT 10SM BKN060 11/M01 A2994 RMK AO2 PK WND 29028/2322 SLP139 60002 T01061011 10167 20106 51026 $ (SDK)","FM-15","7","","","","","","","","","","","","","","","","","","","","","","","","","","","","2009-07-30"
"72408013739","2020-05-11T19:54:00","FM-15","7","","","","","","","","","","","","","","","","","","","","","","","","","","","","","","","","","","","","","","29.96","31","51","0.00","","","","46","29.96","BKN:07 60","29.93","10.00","42","290","22","18","","","","","","","","","","","","","","","","","","","","","","","","","","","","","","","","","","","","","MET11705/11/20 19:54:01 METAR KPHL 120054Z 29016G19KT 10SM BKN060 11/M01 A2996 RMK AO2 PK WND 31026/0004 SLP144 T01061006 $","FM-15","7","","","","","","","","","","","","","","","","","","","","","","","","","","","","2009-07-30"
"72408013739","2020-05-11T20:54:00","FM-15","7","","","","","","","","","","","","","","","","","","","","","","","","","","","","","","","","","","","","","","29.98","31","51","0.00","","","","46","29.97","BKN:07 70","29.95","10.00","42","290","23","17","","","","","","","","","","","","","","","","","","","","","","","","","","","","","","","","","","","","","MET09905/11/20 20:54:01 METAR KPHL 120154Z 29015G20KT 10SM BKN070 11/M01 A2998 RMK AO2 SLP150 T01061006 $","FM-15","7","","","","","","","","","","","","","","","","","","","","","","","","","","","","2009-07-30"
"72408013739","2020-05-11T21:54:00","FM-15","7","","","","","","","","","","","","","","","","","","","","","","","","","","","","","","","","","","","","","","30.00","31","49","0.00","","-0.06","3","50","30.00","FEW:02 70","29.97","10.00","41","290","","14","","","","","","","","","","","","","","","","","","","","","","","","","","","","","","","","","","","","","MET10205/11/20 21:54:01 METAR KPHL 120254Z 29012KT 10SM FEW070 09/M01 A3000 RMK AO2 SLP158 T00941006 53019 $","FM-15","7","","","","","","","","","","","","","","","","","","","","","","","","","","","","2009-07-30"
"72408013739","2020-05-11T22:54:00","FM-15","7","","","","","","","","","","","","","","","","","","","","","","","","","","","","","","","","","","","","","","30.02","32","47","0.00","","","","56","30.02","FEW:02 50 SCT:04 70","29.99","10.00","41","270","","11","","","","","","","","","","","","","","","","","","","","","","","","","","","","","","","","","","","","","MET10205/11/20 22:54:02 METAR KPHL 120354Z 27010KT 10SM FEW050 SCT070 08/00 A3002 RMK AO2 SLP166 T00830000 $","FM-15","7","","","","","","","","","","","","","","","","","","","","","","","","","","","","2009-07-30"
"72408013739","2020-05-11T23:54:00","FM-15","7","","","","","","","","","","","","","","","","","","","","","","","","","","","","","","","","","","","","","","30.03","32","48","0.00","","","","54","30.03","BKN:07 60 OVC:08 75","30.00","10.00","41","280","24","15","","","","","","","","","","","","","","","","","","","","","","","","","","","","","","","","","","","","","MET11505/11/20 23:54:02 METAR KPHL 120454Z 28013G21KT 10SM BKN060 OVC075 09/00 A3003 RMK AO2 SLP168 T00890000 401670083 $","FM-15","7","","","","","","","","","","","","","","","","","","","","","","","","","","","","2009-07-30"
"72408013739","2020-05-12T00:54:00","FM-15","7","","","","","","","","","","","","","","","","","","","","","","","","","","","","","","","","","","","","","","30.03","32","46","0.00","","-0.04","1","58","30.03","FEW:02 60 SCT:04 70","30.00","10.00","40","270","","15","","","","","","","","","","","","","","","","","","","","","","","","","","","","","","","","","","","","","MET12605/12/20 00:54:02 METAR KPHL 120554Z 27013KT 10SM FEW060 SCT070 08/00 A3003 RMK AO2 SLP169 T00780000 10106 20078 51012 $ (LPA)","FM-15","7","","","","","","","","","","","","","","","","","","","","","","","","","","","","2009-07-30"
"72408013739","2020-05-12T01:54:00","FM-15","7","","","","","","","","","","","","","","","","","","","","","","","","","","","","","","","","","","","","","","30.03","31","45","0.00","","","","58","30.03","BKN:07 60","30.00","10.00","39","280","","13","","","","","","","","","","","","","","","","","","","","","","","","","","","","","","","","","","","","","MET10205/12/20 01:54:02 METAR KPHL 120654Z 28011KT 10SM BKN060 07/M01 A3003 RMK AO2 SLP169 T00721006 $ (LPA)","FM-15","7","","","","","","","","","","","","","","","","","","","","","","","","","","","","2009-07-30"
"72408013739","2020-05-12T02:54:00","FM-15","7","","","","","","","","","","","","","","","","","","","","","","","","","","","","","","","","","","","","","","30.04","30","45","0.00","","","","56","30.03","SCT:04 60","30.01","10.00","39","290","","11","","","","","","","","","","","","","","","","","","","","","","","","","","","","","","","","","","","","","MET10205/12/20 02:54:02 METAR KPHL 120754Z 29010KT 10SM SCT060 07/M01 A3004 RMK AO2 SLP170 T00721011 $ (LPA)","FM-15","7","","","","","","","","","","","","","","","","","","","","","","","","","","","","2009-07-30"
"72408013739","2020-05-12T03:54:00","FM-15","7","","","","","","","","","","","","","","","","","","","","","","","","","","","","","","","","","","","","","","30.05","30","44","0.00","","-0.02","3","58","30.05","FEW:02 60","30.02","10.00","38","290","","9","","","","","","","","","","","","","","","","","","","","","","","","","","","","","","","","","","","","","MET10805/12/20 03:54:02 METAR KPHL 120854Z 29008KT 10SM FEW060 07/M01 A3005 RMK AO2 SLP175 T00671011 53006 $ (LPA)","FM-15","7","","","","","","","","","","","","","","","","","","","","","","","","","","","","2009-07-30"
"72408013739","2020-05-12T04:54:00","FM-15","7","","","","","","","","","","","","","","","","","","","","","","","","","","","","","","","","","","","","","","30.07","31","42","0.00","","","","65","30.07","FEW:02 60","30.04","10.00","37","270","","9","","","","","","","","","","","","","","","","","","","","","","","","","","","","","","","","","","","","","MET10205/12/20 04:54:02 METAR KPHL 120954Z 27008KT 10SM FEW060 06/M01 A3007 RMK AO2 SLP182 T00561006 $ (LPA)","FM-15","7","","","","","","","","","","","","","","","","","","","","","","","","","","","","2009-07-30"
"72408013739","2020-05-12T05:54:00","FM-15","7","","","","","","","","","","","","","","","","","","","","","","","","","","","","","","","","","","","","","","30.10","31","44","0.00","","","","60","30.09","FEW:02 60","30.07","10.00","39","280","","9","","","","","","","","","","","","","","","","","","","","","","","","","","","","","","","","","","","","","MET10205/12/20 05:54:02 METAR KPHL 121054Z 28008KT 10SM FEW060 07/M01 A3010 RMK AO2 SLP191 T00671006 $ (GAH)","FM-15","7","","","","","","","","","","","","","","","","","","","","","","","","","","","","2009-07-30"
"72408013739","2020-05-12T06:54:00","FM-15","7","","","","","","","","","","","","","","","","","","","","","","","","","","","","","","","","","","","","","","30.12","31","46","0.00","","-0.06","1","56","30.11","FEW:02 60","30.09","10.00","40","280","20","14","","","","","","","","","","","","","","","","","","","","","","","","","","","","","","","","","","","","","MET12905/12/20 06:54:02 METAR KPHL 121154Z 28012G17KT 10SM FEW060 08/M01 A3012 RMK AO2 SLP197 70004 T00781006 10078 20056 51022 $ (GAH)","FM-15","7","","","","","","","","","","","","","","","","","","","","","","","","","","","","2009-07-30"
"72408013739","2020-05-12T07:54:00","FM-15","7","","","","","","","","","","","","","","","","","","","","","","","","","","","","","","","","","","","","","","30.12","29","50","0.00","","","","44","30.12","SCT:04 48 SCT:04 60","30.09","10.00","41","310","25","17","","","","","","","","","","","","","","","","","","","","","","","","","","","","","","","","","","","","","MET11005/12/20 07:54:02 METAR KPHL 121254Z 31015G22KT 10SM SCT048 SCT060 10/M02 A3012 RMK AO2 SLP200 T01001017 (GAH)","FM-15","7","","","","","","","","","","","","","","","","","","","","","","","","","","","","2009-07-30"
"72408013739","2020-05-12T08:54:00","FM-15","7","","","","","","","","","","","","","","","","","","","","","","","","","","","","","","","","","","","","","","30.10","27","51","0.00","","","","39","30.10","SCT:04 50 SCT:04 60","30.07","10.00","41","290","","13","","","","","","","","","","","","","","","","","","","","","","","","","","","","","","","","","","","","","MET10705/12/20 08:54:02 METAR KPHL 121354Z 29011KT 10SM SCT050 SCT060 11/M03 A3010 RMK AO2 SLP192 T01061028 (GAH)","FM-15","7","","","","","","","","","","","","","","","","","","","","","","","","","","","","2009-07-30"
"72408013739","2020-05-12T09:54:00","FM-15","7","","","","","","","","","","","","","","","","","","","","","","","","","","","","","","","","","","","","","","30.11","25","51","0.00","","+0.01","8","36","30.10","BKN:07 60","30.08","10.00","40","300","28","18","","","","","","","","","","","","","","","","","","","","","","","","","","","","","","","","","","","","","MET10905/12/20 09:54:02 METAR KPHL 121454Z 30016G24KT 10SM BKN060 11/M04 A3011 RMK AO2 SLP194 T01061039 58003 (GAH)","FM-15","7","","","","","","","","","","","","","","","","","","","","","","","","","","","","2009-07-30"
"72408013739","2020-05-12T10:54:00","FM-15","7","","","","","","","","","","","","","","","","","","","","","","","","","","","","","","","","","","","","","","30.10","27","54","0.00","","","","35","30.10","BKN:07 60","30.07","10.00","43","310","23","17","","","","","","","","","","","","","","","","","","","","","","","","","","","","","","","","","","","","","MET10305/12/20 10:54:02 METAR KPHL 121554Z 31015G20KT 10SM BKN060 12/M03 A3010 RMK AO2 SLP192 T01221028 (GAH)","FM-15","7","","","","","","","","","","","","","","","","","","","","","","","","","","","","2009-07-30"
"72408013739","2020-05-12T11:54:00","FM-15","7","","","","","","","","","","","","","","","","","","","","","","","","","","","","","","","","","","","","","","30.09","27","55","0.00","","","","34","30.09","BKN:07 60","30.06","10.00","43","280","24","16","","","","","","","","","","","","","","","","","","","","","","","","","","","","","","","","","","","","","MET10305/12/20 11:54:02 METAR KPHL 121654Z 28014G21KT 10SM BKN060 13/M03 A3009 RMK AO2 SLP189 T01281028 (GAH)","FM-15","7","","","","","","","","","","","","","","","","","","","","","","","","","","","","2009-07-30"
"72408013739","2020-05-12T12:54:00","FM-15","7","","","","","","","","","","","","","","","","","","","","","","","","","","","","","","","","","","","","","","30.07","27","58","0.00","","+0.04","8","31","30.07","SCT:04 65","30.04","10.00","45","290","23","17","","","","","","","","","","","","","","","","","","","","","","","","","","","","","","","","","","","","","MET12105/12/20 12:54:02 METAR KPHL 121754Z 29015G20KT 10SM SCT065 14/M03 A3007 RMK AO2 SLP182 T01441028 10144 20078 58012 (GAH)","FM-15","7","","","","","","","","","","","","","","","","","","","","","","","","","","","","2009-07-30"
"72408013739","2020-05-12T13:54:00","FM-15","7","","","","","","","","","","","","","","","","","","","","","","","","","","","","","","","","","","","","","","30.06","25","57","0.00","","","","29","30.06","BKN:07 70","30.03","10.00","44","270","25","16","","","","","","","","","","","","","","","","","","","","","","","","","","","","","","","","","","","","","MET12005/12/20 13:54:02 METAR KPHL 121854Z 27014G22KT 10SM BKN070 14/M04 A3006 RMK AO2 PK WND 26026/1826 SLP179 T01391039 (SS)","FM-15","7","","","","","","","","","","","","","","","","","","","","","","","","","","","","2009-07-30"
"72408013739","2020-05-12T14:54:00","FM-15","7","","","","","","","","","","","","","","","","","","","","","","","","","","","","","","","","","","","","","","30.05","25","59","0.00","","","","27","30.05","BKN:07 80","30.02","10.00","45","260","","20","","","","","","","","","","","","","","","","","","","","","","","","","","","","","","","","","","","","","MET11705/12/20 14:54:02 METAR KPHL 121954Z 26017KT 10SM BKN080 15/M04 A3005 RMK AO2 PK WND 27026/1944 SLP177 T01501039 (SS)","FM-15","7","","","","","","","","","","","","","","","","","","","","","","","","","","","","2009-07-30"
"72408013739","2020-05-12T15:54:00","FM-15","7","","","","","","","","","","","","","","","","","","","","","","","","","","","","","","","","","","","","","","30.05","22","60","0.00","","+0.02","6","23","30.05","SCT:04 90","30.02","10.00","44","270","32","17","","","","","","","","","","","","","","","","","","","","","","","","","","","","","","","","","","","","","MET12605/12/20 15:54:02 METAR KPHL 122054Z 27015G28KT 10SM SCT090 16/M06 A3005 RMK AO2 PK WND 29028/2046 SLP175 T01561056 56007 (SS)","FM-15","7","","","","","","","","","","","","","","","","","","","","","","","","","","","","2009-07-30"
"72408013739","2020-05-12T16:54:00","FM-15","7","","","","","","","","","","","","","","","","","","","","","","","","","","","","","","","","","","","","","","30.06","20","60","0.00","","","","21","30.06","SCT:04 95","30.03","10.00","44","290","26","17","","","","","","","","","","","","","","","","","","","","","","","","","","","","","","","","","","","","","MET12005/12/20 16:54:02 METAR KPHL 122154Z 29015G23KT 10SM SCT095 16/M07 A3006 RMK AO2 PK WND 27026/2113 SLP179 T01561067 (SS)","FM-15","7","","","","","","","","","","","","","","","","","","","","","","","","","","","","2009-07-30"
"72408013739","2020-05-12T17:54:00","FM-15","7","","","","","","","","","","","","","","","","","","","","","","","","","","","","","","","","","","","","","","30.09","20","59","0.00","","","","22","30.09","SCT:04 95","30.06","10.00","43","300","30","18","","","","","","","","","","","","","","","","","","","","","","","","","","","","","","","","","","","","","MET12005/12/20 17:54:02 METAR KPHL 122254Z 30016G26KT 10SM SCT095 15/M07 A3009 RMK AO2 PK WND 31026/2248 SLP188 T01501067 (SS)","FM-15","7","","","","","","","","","","","","","","","","","","","","","","","","","","","","2009-07-30"
"72408013739","2020-05-12T18:54:00","FM-15","7","","","","","","","","","","","","","","","","","","","","","","","","","","","","","","","","","","","","","","30.11","20","57","0.00","","-0.06","3","24","30.11","FEW:02 100","30.08","10.00","42","290","","11","","","","","","","","","","","","","","","","","","","","","","","","","","","","","","","","","","","","","MET11705/12/20 18:54:02 METAR KPHL 122354Z 29010KT 10SM FEW100 14/M07 A3011 RMK AO2 SLP197 T01391067 10161 20139 53022 (SS)","FM-15","7","","","","","","","","","","","","","","","","","","","","","","","","","","","","2009-07-30"
"72408013739","2020-05-12T19:54:00","FM-15","7","","","","","","","","","","","","","","","","","","","","","","","","","","","","","","","","","","","","","","30.13","24","53","0.00","","","","32","30.13","SCT:04 100","30.10","10.00","41","260","","8","","","","","","","","","","","","","","","","","","","","","","","","","","","","","","","","","","","","","MET09405/12/20 19:54:01 METAR KPHL 130054Z 26007KT 10SM SCT100 12/M04 A3013 RMK AO2 SLP202 T01171044","FM-15","7","","","","","","","","","","","","","","","","","","","","","","","","","","","","2009-07-30"
"72408013739","2020-05-12T20:54:00","FM-15","7","","","","","","","","","","","","","","","","","","","","","","","","","","","","","","","","","","","","","","30.15","25","51","0.00","","","","36","30.15","SCT:04 100","30.12","10.00","40","260","","9","","","","","","","","","","","","","","","","","","","","","","","","","","","","","","","","","","","","","MET09405/12/20 20:54:01 METAR KPHL 130154Z 26008KT 10SM SCT100 11/M04 A3015 RMK AO2 SLP210 T01061039","FM-15","7","","","","","","","","","","","","","","","","","","","","","","","","","","","","2009-07-30"
"72408013739","2020-05-12T21:54:00","FM-15","7","","","","","","","","","","","","","","","","","","","","","","","","","","","","","","","","","","","","","","30.17","25","52","0.00","","-0.06","3","35","30.17","BKN:07 100","30.14","10.00","41","260","","9","","","","","","","","","","","","","","","","","","","","","","","","","","","","","","","","","","","","","MET10005/12/20 21:54:01 METAR KPHL 130254Z 26008KT 10SM BKN100 11/M04 A3017 RMK AO2 SLP216 T01111039 53019","FM-15","7","","","","","","","","","","","","","","","","","","","","","","","","","","","","2009-07-30"
"72408013739","2020-05-12T22:54:00","FM-15","7","","","","","","","","","","","","","","","","","","","","","","","","","","","","","","","","","","","","","","30.19","25","52","0.00","","","","35","30.19","FEW:02 90 SCT:04 100","30.16","10.00","41","290","","7","","","","","","","","","","","","","","","","","","","","","","","","","","","","","","","","","","","","","MET10105/12/20 22:54:02 METAR KPHL 130354Z 29006KT 10SM FEW090 SCT100 11/M04 A3019 RMK AO2 SLP223 T01111039","FM-15","7","","","","","","","","","","","","","","","","","","","","","","","","","","","","2009-07-30"
"72408013739","2020-05-12T23:54:00","FM-15","7","","","","","","","","","","","","","","","","","","","","","","","","","","","","","","","","","","","","","","30.20","24","51","0.00","","","","35","30.20","FEW:02 100","30.17","10.00","40","280","","7","","","","","","","","","","","","","","","","","","","","","","","","","","","","","","","","","","","","","MET10405/12/20 23:54:02 METAR KPHL 130454Z 28006KT 10SM FEW100 11/M04 A3020 RMK AO2 SLP227 T01061044 401610056","FM-15","7","","","","","","","","","","","","","","","","","","","","","","","","","","","","2009-07-30"
"72408013739","2020-05-13T00:54:00","FM-15","7","","","","","","","","","","","","","","","","","","","","","","","","","","","","","","","","","","","","","","30.22","27","47","0.00","","-0.05","1","46","30.22","FEW:02 90","30.19","10.00","39","360","","7","","","","","","","","","","","","","","","","","","","","","","","","","","","","","","","","","","","","","MET11805/13/20 00:54:02 METAR KPHL 130554Z 36006KT 10SM FEW090 08/M03 A3022 RMK AO2 SLP234 T00831028 10139 20083 51018 (LPA)","FM-15","7","","","","","","","","","","","","","","","","","","","","","","","","","","","","2009-07-30"
"72408013739","2020-05-13T01:54:00","FM-15","7","","","","","","","","","","","","","","","","","","","","","","","","","","","","","","","","","","","","","","30.24","26","47","0.00","","","","44","30.24","CLR:00","30.21","10.00","39","340","","3","","","","","","","","","","","","","","","","","","","","","","","","","","","","","","","","","","","","","MET09705/13/20 01:54:02 METAR KPHL 130654Z 34003KT 10SM CLR 08/M03 A3024 RMK AO2 SLP239 T00831033 (LPA)","FM-15","7","","","","","","","","","","","","","","","","","","","","","","","","","","","","2009-07-30"
"72408013739","2020-05-13T02:54:00","FM-15","7","","","","","","","","","","","","","","","","","","","","","","","","","","","","","","","","","","","","","","30.26","27","45","0.00","","","","49","30.26","CLR:00","30.23","10.00","38","010","","7","","","","","","","","","","","","","","","","","","","","","","","","","","","","","","","","","","","","","MET09705/13/20 02:54:02 METAR KPHL 130754Z 01006KT 10SM CLR 07/M03 A3026 RMK AO2 SLP247 T00721028 (LPA)","FM-15","7","","","","","","","","","","","","","","","","","","","","","","","","","","","","2009-07-30"
"72408013739","2020-05-13T03:54:00","FM-15","7","","","","","","","","","","","","","","","","","","","","","","","","","","","","","","","","","","","","","","30.28","28","43","0.00","","-0.06","3","56","30.28","CLR:00","30.25","10.00","37","360","","5","","","","","","","","","","","","","","","","","","","","","","","","","","","","","","","","","","","","","MET10305/13/20 03:54:02 METAR KPHL 130854Z 36004KT 10SM CLR 06/M02 A3028 RMK AO2 SLP253 T00611022 53019 (LPA)","FM-15","7","","","","","","","","","","","","","","","","","","","","","","","","","","","","2009-07-30"
"72408013739","2020-05-13T04:54:00","FM-15","7","","","","","","","","","","","","","","","","","","","","","","","","","","","","","","","","","","","","","","30.30","27","41","0.00","","","","57","30.29","CLR:00","30.27","10.00","36","350","","5","","","","","","","","","","","","","","","","","","","","","","","","","","","","","","","","","","","","","MET09705/13/20 04:54:02 METAR KPHL 130954Z 35004KT 10SM CLR 05/M03 A3030 RMK AO2 SLP259 T00501028 (LPA)","FM-15","7","","","","","","","","","","","","","","","","","","","","","","","","","","","","2009-07-30"
"72408013739","2020-05-13T05:54:00","FM-15","7","","","","","","","","","","","","","","","","","","","","","","","","","","","","","","","","","","","","","","30.32","29","45","0.00","","","","54","30.32","CLR:00","30.29","10.00","38","000","","0","","","","","","","","","","","","","","","","","","","","","","","","","","","","","","","","","","","","","MET09705/13/20 05:54:02 METAR KPHL 131054Z 00000KT 10SM CLR 07/M02 A3032 RMK AO2 SLP266 T00721017 (GAH)","FM-15","7","","","","","","","","","","","","","","","","","","","","","","","","","","","","2009-07-30"
"72408013739","2020-05-13T06:54:00","FM-15","7","","","","","","","","","","","","","","","","","","","","","","","","","","","","","","","","","","","","","","30.34","26","48","0.00","","-0.06","3","42","30.33","CLR:00","30.31","10.00","39","060","","3","","","","","","","","","","","","","","","","","","","","","","","","","","","","","","","","","","","","","MET11505/13/20 06:54:02 METAR KPHL 131154Z 06003KT 10SM CLR 09/M03 A3034 RMK AO2 SLP272 T00891033 10089 20050 53020 (GAH)","FM-15","7","","","","","","","","","","","","","","","","","","","","","","","","","","","","2009-07-30"
"72408013739","2020-05-13T07:54:00","FM-15","7","","","","","","","","","","","","","","","","","","","","","","","","","","","","","","","","","","","","","","30.35","26","50","0.00","","","","39","30.35","CLR:00","30.32","10.00","40","090","","5","","","","","","","","","","","","","","","","","","","","","","","","","","","","","","","","","","","","","MET09705/13/20 07:54:02 METAR KPHL 131254Z 09004KT 10SM CLR 10/M03 A3035 RMK AO2 SLP277 T01001033 (GAH)","FM-15","7","","","","","","","","","","","","","","","","","","","","","","","","","","","","2009-07-30"
"72408013739","2020-05-13T08:54:00","FM-15","7","","","","","","","","","","","","","","","","","","","","","","","","","","","","","","","","","","","","","","30.35","26","52","0.00","","","","37","30.34","CLR:00","30.32","10.00","41","110","","6","","","","","","","","","","","","","","","","","","","","","","","","","","","","","","","","","","","","","MET09705/13/20 08:54:02 METAR KPHL 131354Z 11005KT 10SM CLR 11/M03 A3035 RMK AO2 SLP275 T01111033 (GAH)","FM-15","7","","","","","","","","","","","","","","","","","","","","","","","","","","","","2009-07-30"
"72408013739","2020-05-13T09:54:00","FM-15","7","","","","","","","","","","","","","","","","","","","","","","","","","","","","","","","","","","","","","","30.34","28","55","0.00","","-0.00","0","35","30.34","CLR:00","30.31","10.00","43","150","","3","","","","","","","","","","","","","","","","","","","","","","","","","","","","","","","","","","","","","MET10305/13/20 09:54:02 METAR KPHL 131454Z 15003KT 10SM CLR 13/M02 A3034 RMK AO2 SLP274 T01281022 50001 (GAH)","FM-15","7","","","","","","","","","","","","","","","","","","","","","","","","","","","","2009-07-30"
"72408013739","2020-05-13T10:54:00","FM-15","7","","","","","","","","","","","","","","","","","","","","","","","","","","","","","","","","","","","","","","30.33","29","57","0.00","","","","34","30.33","FEW:02 65","30.30","10.00","45","260","","9","","","","","","","","","","","","","","","","","","","","","","","","","","","","","","","","","","","","","MET10005/13/20 10:54:02 METAR KPHL 131554Z 26008KT 10SM FEW065 14/M02 A3033 RMK AO2 SLP271 T01391017 (GAH)","FM-15","7","","","","","","","","","","","","","","","","","","","","","","","","","","","","2009-07-30"
"72408013739","2020-05-13T11:54:00","FM-15","7","","","","","","","","","","","","","","","","","","","","","","","","","","","","","","","","","","","","","","30.31","29","59","0.00","","","","32","30.31","FEW:02 65","30.28","10.00","46","270","","9","","","","","","","","","","","","","","","","","","","","","","","","","","","","","","","","","","","","","MET10005/13/20 11:54:02 METAR KPHL 131654Z 27008KT 10SM FEW065 15/M02 A3031 RMK AO2 SLP264 T01501017 (GAH)","FM-15","7","","","","","","","","","","","","","","","","","","","","","","","","","","","","2009-07-30"
"72408013739","2020-05-13T12:54:00","FM-15","7","","","","","","","","","","","","","","","","","","","","","","","","","","","","","","","","","","","","","","30.28","31","61","0.00","","+0.06","8","32","30.28","SCT:04 70","30.25","10.00","47","240","18","14","","","","","","","","","","","","","","","","","","","","","","","","","","","","","","","","","","","","","MET12105/13/20 12:54:02 METAR KPHL 131754Z 24012G16KT 10SM SCT070 16/M01 A3028 RMK AO2 SLP254 T01611006 10167 20089 58019 (GAH)","FM-15","7","","","","","","","","","","","","","","","","","","","","","","","","","","","","2009-07-30"
"72408013739","2020-05-13T13:54:00","FM-15","7","","","","","","","","","","","","","","","","","","","","","","","","","","","","","","","","","","","","","","30.27","26","64","0.00","","","","24","30.27","SCT:04 80","30.24","10.00","47","300","23","15","","","","","","","","","","","","","","","","","","","","","","","","","","","","","","","","","","","","","MET10205/13/20 13:54:02 METAR KPHL 131854Z 30013G20KT 10SM SCT080 18/M03 A3027 RMK AO2 SLP250 T01781033 (SS)","FM-15","7","","","","","","","","","","","","","","","","","","","","","","","","","","","","2009-07-30"
"72408013739","2020-05-13T14:54:00","FM-15","7","","","","","","","","","","","","","","","","","","","","","","","","","","","","","","","","","","","","","","30.26","25","65","0.00","","","","22","30.25","SCT:04 85","30.23","10.00","47","290","25","16","","","","","","","","","","","","","","","","","","","","","","","","","","","","","","","","","","","","","MET10205/13/20 14:54:02 METAR KPHL 131954Z 29014G22KT 10SM SCT085 18/M04 A3026 RMK AO2 SLP245 T01831039 (SS)","FM-15","7","","","","","","","","","","","","","","","","","","","","","","","","","","","","2009-07-30"
"72408013739","2020-05-13T15:54:00","FM-15","7","","","","","","","","","","","","","","","","","","","","","","","","","","","","","","","","","","","","","","30.25","26","66","0.00","","+0.04","6","22","30.24","SCT:04 90","30.22","10.00","48","280","22","16","","","","","","","","","","","","","","","","","","","","","","","","","","","","","","","","","","","","","MET10805/13/20 15:54:02 METAR KPHL 132054Z 28014G19KT 10SM SCT090 19/M03 A3025 RMK AO2 SLP242 T01891033 56013 (SS)","FM-15","7","","","","","","","","","","","","","","","","","","","","","","","","","","","","2009-07-30"
"72408013739","2020-05-13T16:54:00","FM-15","7","","","","","","","","","","","","","","","","","","","","","","","","","","","","","","","","","","","","","","30.25","26","65","0.00","","","","23","30.24","FEW:02 90 FEW:02 250","30.22","10.00","48","300","17","13","","","","","","","","","","","","","","","","","","","","","","","","","","","","","","","","","","","","","MET10905/13/20 16:54:02 METAR KPHL 132154Z 30011G15KT 10SM FEW090 FEW250 18/M03 A3025 RMK AO2 SLP242 T01831033 (SS)","FM-15","7","","","","","","","","","","","","","","","","","","","","","","","","","","","","2009-07-30"
"72408013739","2020-05-13T17:54:00","FM-15","7","","","","","","","","","","","","","","","","","","","","","","","","","","","","","","","","","","","","","","30.24","26","65","0.00","","","","23","30.24","FEW:02 90 FEW:02 250","30.21","10.00","48","310","","10","","","","","","","","","","","","","","","","","","","","","","","","","","","","","","","","","","","","","MET10605/13/20 17:54:02 METAR KPHL 132254Z 31009KT 10SM FEW090 FEW250 18/M03 A3024 RMK AO2 SLP240 T01831033 (SS)","FM-15","7","","","","","","","","","","","","","","","","","","","","","","","","","","","","2009-07-30"
"72408013739","2020-05-13T18:54:00","FM-15","7","","","","","","","","","","","","","","","","","","","","","","","","","","","","","","","","","","","","","","30.25","25","63","0.00","","-0.00","3","24","30.24","CLR:00","30.22","10.00","47","320","","8","","","","","","","","","","","","","","","","","","","","","","","","","","","","","","","","","","","","","MET11405/13/20 18:54:02 METAR KPHL 132354Z 32007KT 10SM CLR 17/M04 A3025 RMK AO2 SLP242 T01721039 10189 20161 53000 (SS)","FM-15","7","","","","","","","","","","","","","","","","","","","","","","","","","","","","2009-07-30"
"72408013739","2020-05-13T19:54:00","FM-15","7","","","","","","","","","","","","","","","","","","","","","","","","","","","","","","","","","","","","","","30.27","26","61","0.00","","","","26","30.26","CLR:00","30.24","10.00","46","000","","0","","","","","","","","","","","","","","","","","","","","","","","","","","","","","","","","","","","","","MET09105/13/20 19:54:01 METAR KPHL 140054Z 00000KT 10SM CLR 16/M03 A3027 RMK AO2 SLP248 T01611033","FM-15","7","","","","","","","","","","","","","","","","","","","","","","","","","","","","2009-07-30"
"72408013739","2020-05-13T20:54:00","FM-15","7","","","","","","","","","","","","","","","","","","","","","","","","","","","","","","","","","","","","","","30.29","37","57","0.00","","","","47","30.29","CLR:00","30.26","10.00","48","210","","6","","","","","","","","","","","","","","","","","","","","","","","","","","","","","","","","","","","","","MET09005/13/20 20:54:01 METAR KPHL 140154Z 21005KT 10SM CLR 14/03 A3029 RMK AO2 SLP257 T01390028","FM-15","7","","","","","","","","","","","","","","","","","","","","","","","","","","","","2009-07-30"
"72408013739","2020-05-13T21:54:00","FM-15","7","","","","","","","","","","","","","","","","","","","","","","","","","","","","","","","","","","","","","","30.31","39","55","0.00","","-0.06","1","55","30.30","CLR:00","30.28","10.00","47","230","","9","","","","","","","","","","","","","","","","","","","","","","","","","","","","","","","","","","","","","MET09605/13/20 21:54:01 METAR KPHL 140254Z 23008KT 10SM CLR 13/04 A3031 RMK AO2 SLP261 T01280039 51019","FM-15","7","","","","","","","","","","","","","","","","","","","","","","","","","","","","2009-07-30"
"72408013739","2020-05-13T22:54:00","FM-15","7","","","","","","","","","","","","","","","","","","","","","","","","","","","","","","","","","","","","","","30.31","40","53","0.00","","","","61","30.30","CLR:00","30.28","10.00","47","230","","5","","","","","","","","","","","","","","","","","","","","","","","","","","","","","","","","","","","","","MET09005/13/20 22:54:02 METAR KPHL 140354Z 23004KT 10SM CLR 12/04 A3031 RMK AO2 SLP262 T01170044","FM-15","7","","","","","","","","","","","","","","","","","","","","","","","","","","","","2009-07-30"
"72408013739","2020-05-13T23:54:00","FM-15","7","","","","","","","","","","","","","","","","","","","","","","","","","","","","","","","","","","","","","","30.31","40","50","0.00","","","","68","30.30","CLR:00","30.28","10.00","45","020","","3","","","","","","","","","","","","","","","","","","","","","","","","","","","","","","","","","","","","","MET10005/13/20 23:54:02 METAR KPHL 140454Z 02003KT 10SM CLR 10/04 A3031 RMK AO2 SLP262 T01000044 401890050","FM-15","7","","","","","","","","","","","","","","","","","","","","","","","","","","","","2009-07-30"
"72408013739","2020-05-14T00:54:00","FM-15","7","","","","","","","","","","","","","","","","","","","","","","","","","","","","","","","","","","","","","","30.31","40","48","0.00","","-0.00","1","74","30.30","CLR:00","30.28","10.00","44","080","","3","","","","","","","","","","","","","","","","","","","","","","","","","","","","","","","","","","","","","MET11405/14/20 00:54:02 METAR KPHL 140554Z 08003KT 10SM CLR 09/04 A3031 RMK AO2 SLP262 T00890044 10172 20083 51001 (LPA)","FM-15","7","","","","","","","","","","","","","","","","","","","","","","","","","","","","2009-07-30"
"72408013739","2020-05-14T01:54:00","FM-15","7","","","","","","","","","","","","","","","","","","","","","","","","","","","","","","","","","","","","","","30.31","41","47","0.00","","","","80","30.31","FEW:02 280","30.28","10.00","44","000","","0","","","","","","","","","","","","","","","","","","","","","","","","","","","","","","","","","","","","","MET09905/14/20 01:54:02 METAR KPHL 140654Z 00000KT 10SM FEW280 08/05 A3031 RMK AO2 SLP264 T00830050 (LPA)","FM-15","7","","","","","","","","","","","","","","","","","","","","","","","","","","","","2009-07-30"
"72408013739","2020-05-14T02:54:00","FM-15","7","","","","","","","","","","","","","","","","","","","","","","","","","","","","","","","","","","","","","","30.32","40","46","0.00","","","","79","30.32","CLR:00","30.29","10.00","43","090","","5","","","","","","","","","","","","","","","","","","","","","","","","","","","","","","","","","","","","","MET09605/14/20 02:54:02 METAR KPHL 140754Z 09004KT 10SM CLR 08/04 A3032 RMK AO2 SLP266 T00780044 (LPA)","FM-15","7","","","","","","","","","","","","","","","","","","","","","","","","","","","","2009-07-30"
"72408013739","2020-05-14T03:54:00","FM-15","7","","","","","","","","","","","","","","","","","","","","","","","","","","","","","","","","","","","","","","30.32","40","46","0.00","","-0.01","1","79","30.32","SCT:04 280","30.29","10.00","43","040","","3","","","","","","","","","","","","","","","","","","","","","","","","","","","","","","","","","","","","","MET10505/14/20 03:54:02 METAR KPHL 140854Z 04003KT 10SM SCT280 08/04 A3032 RMK AO2 SLP266 T00780044 51004 (LPA)","FM-15","7","","","","","","","","","","","","","","","","","","","","","","","","","","","","2009-07-30"
"72408013739","2020-05-14T04:54:00","FM-15","7","","","","","","","","","","","","","","","","","","","","","","","","","","","","","","","","","","","","","","30.32","42","46","0.00","","","","86","30.32","BKN:07 280","30.29","10.00","44","110","","3","","","","","","","","","","","","","","","","","","","","","","","","","","","","","","","","","","","","","MET09905/14/20 04:54:02 METAR KPHL 140954Z 11003KT 10SM BKN280 08/06 A3032 RMK AO2 SLP266 T00780056 (LPA)","FM-15","7","","","","","","","","","","","","","","","","","","","","","","","","","","","","2009-07-30"
"72408013739","2020-05-14T05:54:00","FM-15","7","","","","","","","","","","","","","","","","","","","","","","","","","","","","","","","","","","","","","","30.33","43","49","0.00","","","","80","30.33","BKN:07 260","30.30","10.00","46","000","","0","","","","","","","","","","","","","","","","","","","","","","","","","","","","","","","","","","","","","MET10105/14/20 05:54:02 METAR KPHL 141054Z 00000KT 10SM BKN260 09/06 A3033 RMK AO2 SLP270 T00940061 $ (GAH)","FM-15","7","","","","","","","","","","","","","","","","","","","","","","","","","","","","2009-07-30"
"72408013739","2020-05-14T06:54:00","FM-15","7","","","","","","","","","","","","","","","","","","","","","","","","","","","","","","","","","","","","","","30.33","41","52","0.00","","-0.01","3","66","30.33","SCT:04 260","30.30","10.00","47","070","","6","","","","","","","","","","","","","","","","","","","","","","","","","","","","","","","","","","","","","MET11905/14/20 06:54:02 METAR KPHL 141154Z 07005KT 10SM SCT260 11/05 A3033 RMK AO2 SLP271 T01110050 10111 20067 53005 $ (GAH)","FM-15","7","","","","","","","","","","","","","","","","","","","","","","","","","","","","2009-07-30"
"72408013739","2020-05-14T07:54:00","FM-15","7","","","","","","","","","","","","","","","","","","","","","","","","","","","","","","","","","","","","","","30.33","42","57","0.00","","","","58","30.33","SCT:04 260","30.30","10.00","50","060","","3","","","","","","","","","","","","","","","","","","","","","","","","","","","","","","","","","","","","","MET09905/14/20 07:54:02 METAR KPHL 141254Z 06003KT 10SM SCT260 14/06 A3033 RMK AO2 SLP271 T01390056 (GAH)","FM-15","7","","","","","","","","","","","","","","","","","","","","","","","","","","","","2009-07-30"
"72408013739","2020-05-14T08:54:00","FM-15","7","","","","","","","","","","","","","","","","","","","","","","","","","","","","","","","","","","","","","","30.31","43","62","0.00","","","","50","30.31","FEW:02 200 FEW:02 280","30.28","10.00","52","000","","0","","","","","","","","","","","","","","","","","","","","","","","","","","","","","","","","","","","","","MET10605/14/20 08:54:02 METAR KPHL 141354Z 00000KT 10SM FEW200 FEW280 17/06 A3031 RMK AO2 SLP264 T01670061 (GAH)","FM-15","7","","","","","","","","","","","","","","","","","","","","","","","","","","","","2009-07-30"
"72408013739","2020-05-14T09:54:00","FM-15","7","","","","","","","","","","","","","","","","","","","","","","","","","","","","","","","","","","","","","","30.29","44","65","0.00","","+0.04","8","47","30.29","FEW:02 200 FEW:02 280","30.26","10.00","54","VRB","","3","","","","","","","","","","","","","","","","","","","","","","","","","","","","","","","","","","","","","MET11205/14/20 09:54:02 METAR KPHL 141454Z VRB03KT 10SM FEW200 FEW280 18/07 A3029 RMK AO2 SLP257 T01830067 58014 (GAH)","FM-15","7","","","","","","","","","","","","","","","","","","","","","","","","","","","","2009-07-30"
"72408013739","2020-05-14T10:54:00","FM-15","7","","","","","","","","","","","","","","","","","","","","","","","","","","","","","","","","","","","","","","30.25","43","69","0.00","","","","39","30.25","FEW:02 55 FEW:02 280","30.22","10.00","55","190","","10","","","","","","","","","","","","","","","","","","","","","","","","","","","","","","","","","","","","","MET10605/14/20 10:54:02 METAR KPHL 141554Z 19009KT 10SM FEW055 FEW280 21/06 A3025 RMK AO2 SLP244 T02060061 (GAH)","FM-15","7","","","","","","","","","","","","","","","","","","","","","","","","","","","","2009-07-30"
"72408013739","2020-05-14T11:54:00","FM-15","7","","","","","","","","","","","","","","","","","","","","","","","","","","","","","","","","","","","","","","30.23","36","73","0.00","","","","26","30.23","FEW:02 60 SCT:04 280","30.20","10.00","54","220","","16","","","","","","","","","","","","","","","","","","","","","","","","","","","","","","","","","","","","","MET10605/14/20 11:54:02 METAR KPHL 141654Z 22014KT 10SM FEW060 SCT280 23/02 A3023 RMK AO2 SLP236 T02280022 (GAH)","FM-15","7","","","","","","","","","","","","","","","","","","","","","","","","","","","","2009-07-30"
"72408013739","2020-05-14T12:54:00","FM-15","7","","","","","","","","","","","","","","","","","","","","","","","","","","","","","","","","","","","","","","30.20","42","73","0.00","","+0.09","6","33","30.19","FEW:02 70 SCT:04 85 SCT:04 280","30.17","10.00","57","220","30","18","","","","","","","","","","","","","","","","","","","","","","","","","","","","","","","","","","","","","MET15205/14/20 12:54:02 METAR KPHL 141754Z 22016G26KT 10SM FEW070 SCT085 SCT280 23/06 A3020 RMK AO2 PK WND 23026/1747 SLP225 T02280056 10228 20111 56032 (GAH)","FM-15","7","","","","","","","","","","","","","","","","","","","","","","","","","","","","2009-07-30"
"72408013739","2020-05-14T13:54:00","FM-15","7","","","","","","","","","","","","","","","","","","","","","","","","","","","","","","","","","","","","","","30.17","42","72","0.00","","","","34","30.16","BKN:07 70 BKN:07 85 BKN:07 280","30.14","10.00","56","210","","11","","","","","","","","","","","","","","","","","","","","","","","","","","","","","","","","","","","","","MET11205/14/20 13:54:02 METAR KPHL 141854Z 21010KT 10SM BKN070 BKN085 BKN280 22/06 A3017 RMK AO2 SLP215 T02220056 (SS)","FM-15","7","","","","","","","","","","","","","","","","","","","","","","","","","","","","2009-07-30"
"72408013739","2020-05-14T14:54:00","FM-15","7","","","","","","","","","","","","","","","","","","","","","","","","","","","","","","","","","","","","","","30.16","43","71","0.00","","","","36","30.15","BKN:07 50 OVC:08 70","30.13","10.00","56","210","","15","","","","","","","","","","","","","","","","","","","","","","","","","","","","","","","","","","","","","MET10505/14/20 14:54:02 METAR KPHL 141954Z 21013KT 10SM BKN050 OVC070 22/06 A3016 RMK AO2 SLP211 T02170061 (SS)","FM-15","7","","","","","","","","","","","","","","","","","","","","","","","","","","","","2009-07-30"
"72408013739","2020-05-14T15:54:00","FM-15","7","","","","","","","","","","","","","","","","","","","","","","","","","","","","","","","","","","","","","","30.13","43","70","0.00","","+0.07","6","38","30.12","OVC:08 55","30.10","10.00","56","210","","13","","","","","","","","","","","","","","","","","","","","","","","","","","","","","","","","","","","","","MET10405/14/20 15:54:02 METAR KPHL 142054Z 21011KT 10SM OVC055 21/06 A3013 RMK AO2 SLP201 T02110061 56024 (SS)","FM-15","7","","","","","","","","","","","","","","","","","","","","","","","","","","","","2009-07-30"
"72408013739","2020-05-14T16:54:00","FM-15","7","","","","","","","","","","","","","","","","","","","","","","","","","","","","","","","","","","","","","","30.11","46","70","0.00","","","","42","30.11","OVC:08 60","30.08","10.00","57","220","","11","","","","","","","","","","","","","","","","","","","","","","","","","","","","","","","","","","","","","MET09805/14/20 16:54:02 METAR KPHL 142154Z 22010KT 10SM OVC060 21/08 A3011 RMK AO2 SLP197 T02110078 (SS)","FM-15","7","","","","","","","","","","","","","","","","","","","","","","","","","","","","2009-07-30"
"72408013739","2020-05-14T17:54:00","FM-15","7","","","","","","","","","","","","","","","","","","","","","","","","","","","","","","","","","","","","","","30.11","49","69","0.00","","","","49","30.11","OVC:08 50","30.08","10.00","58","240","","13","","","","","","","","","","","","","","","","","","","","","","","","","","","","","","","","","","","","","MET09805/14/20 17:54:02 METAR KPHL 142254Z 24011KT 10SM OVC050 21/09 A3011 RMK AO2 SLP196 T02060094 (SS)","FM-15","7","","","","","","","","","","","","","","","","","","","","","","","","","","","","2009-07-30"
"72408013739","2020-05-14T18:54:00","FM-15","7","","","","","","","","","","","","","","","","","","","","","","","","","","","","","","","","","","","","","","30.10","50","68","0.00","","+0.03","6","53","30.09","SCT:04 48 OVC:08 100","30.07","10.00","58","220","","8","","","","","","","","","","","","","","","","","","","","","","","","","","","","","","","","","","","","","MET12305/14/20 18:54:02 METAR KPHL 142354Z 22007KT 10SM SCT048 OVC100 20/10 A3010 RMK AO2 SLP191 T02000100 10233 20200 56010 (SS)","FM-15","7","","","","","","","","","","","","","","","","","","","","","","","","","","","","2009-07-30"
"72408013739","2020-05-14T19:54:00","FM-15","7","","","","","","","","","","","","","","","","","","","","","","","","","","","","","","","","","","","","","","30.10","51","66","0.00","","","","59","30.10","FEW:02 100 BKN:07 140","30.07","10.00","58","220","","7","","","","","","","","","","","","","","","","","","","","","","","","","","","","","","","","","","","","","MET10005/14/20 19:54:01 METAR KPHL 150054Z 22006KT 10SM FEW100 BKN140 19/11 A3010 RMK AO2 SLP192 T01890106","FM-15","7","","","","","","","","","","","","","","","","","","","","","","","","","","","","2009-07-30"
"72408013739","2020-05-14T20:54:00","FM-15","7","","","","","","","","","","","","","","","","","","","","","","","","","","","","","","","","","","","","","","30.10","51","65","0.00","","","","61","30.10","FEW:02 70 BKN:07 110","30.07","10.00","57","180","","3","","","","","","","","","","","","","","","","","","","","","","","","","","","","","","","","","","","","","MET10005/14/20 20:54:01 METAR KPHL 150154Z 18003KT 10SM FEW070 BKN110 18/11 A3010 RMK AO2 SLP192 T01830106","FM-15","7","","","","","","","","","","","","","","","","","","","","","","","","","","","","2009-07-30"
"72408013739","2020-05-14T21:54:00","FM-15","7","","","","","","","","","","","","","","","","","","","","","","","","","","","","","","","","","","","","","","30.09","52","64","0.00","","+0.01","8","65","30.09","FEW:02 65 BKN:07 80 BKN:07 100","30.06","10.00","57","190","","8","","","","","","","","","","","","","","","","","","","","","","","","","","","","","","","","","","","","","MET11305/14/20 21:54:01 METAR KPHL 150254Z 19007KT 10SM FEW065 BKN080 BKN100 18/11 A3009 RMK AO2 SLP188 T01780111 58003","FM-15","7","","","","","","","","","","","","","","","","","","","","","","","","","","","","2009-07-30"
"72408013739","2020-05-14T22:54:00","FM-15","7","","","","","","","","","","","","","","","","","","","","","","","","","","","","","","","","","","","","","","30.06","52","64","T","","","","65","30.05","SCT:04 60 BKN:07 85 OVC:08 110","30.03","10.00","57","180","","9","","","","","","","","","","","","","","","","","","","","","","","","","","","","","","","","","","","","","MET12205/14/20 22:54:02 METAR KPHL 150354Z 18008KT 10SM SCT060 BKN085 OVC110 18/11 A3006 RMK AO2 RAB08E26 SLP177 P0000 T01780111","FM-15","7","","","","","","","","","","","","","","","","","","","","","","","","","","","","2009-07-30"
"72408013739","2020-05-14T23:54:00","FM-15","7","","","","","","","","","","","","","","","","","","","","","","","","","","","","","","","","","","","","","","30.04","53","63","0.00","","","","70","30.04","FEW:02 65 BKN:07 110 OVC:08 130","30.01","10.00","57","200","","8","","","","","","","","","","","","","","","","","","","","","","","","","","","","","","","","","","","","","MET11705/14/20 23:54:02 METAR KPHL 150454Z 20007KT 10SM FEW065 BKN110 OVC130 17/12 A3004 RMK AO2 SLP173 T01720117 402330067","FM-15","7","","","","","","","","","","","","","","","","","","","","","","","","","","","","2009-07-30"
"72408013739","2020-05-15T00:54:00","FM-15","7","","","","","","","","","","","","","","","","","","","","","","","","","","","","","","","","","","","","","","30.02","54","62","0.00","","+0.07","6","75","30.01","BKN:07 120 BKN:07 150","29.99","10.00","58","210","","6","","","","","","","","","","","","","","","","","","","","","","","","","","","","","","","","","","","","","MET12905/15/20 00:54:02 METAR KPHL 150554Z 21005KT 10SM BKN120 BKN150 17/12 A3002 RMK AO2 SLP164 60000 T01670122 10200 20167 56024 (DH)","FM-15","7","","","","","","","","","","","","","","","","","","","","","","","","","","","","2009-07-30"
"72408013739","2020-05-15T01:54:00","FM-15","7","","","","","","","","","","","","","","","","","","","","","","","","","","","","","","","","","","","","","","30.01","55","64","0.00","","","","73","30.00","SCT:04 85 BKN:07 110 OVC:08 160","29.98","10.00","59","240","","8","","","","","","","","","","","","","","","","","","","","","","","","","","","","","","","","","","","","","MET11205/15/20 01:54:02 METAR KPHL 150654Z 24007KT 10SM SCT085 BKN110 OVC160 18/13 A3001 RMK AO2 SLP160 T01780128 (DH)","FM-15","7","","","","","","","","","","","","","","","","","","","","","","","","","","","","2009-07-30"
"72408013739","2020-05-15T02:54:00","FM-15","7","","","","","","","","","","","","","","","","","","","","","","","","","","","","","","","","","","","","","","29.99","58","64","0.01","","","","81","29.99","SCT:04 75 BKN:07 90 OVC:08 110","29.96","10.00","61","230","","7","","","","","","","","","","","","","","","","","","","","","","","","","","","","","","","","","","","","","MET12705/15/20 02:54:02 METAR KPHL 150754Z 23006KT 10SM SCT075 BKN090 OVC110 18/14 A2999 RMK AO2 RAB16E40 SLP156 P0001 T01780144 (DH)","FM-15","7","","","","","","","","","","","","","","","","","","","","","","","","","","","","2009-07-30"
"72408013739","2020-05-15T03:54:00","FM-15","7","","","","","","","","","","","","","","","","","","","","","","","","","","","","","","","","","","","","","","30.01","59","62","0.00","","+0.01","5","90","30.01","SCT:04 70 BKN:07 110 BKN:07 140","29.98","10.00","60","260","","9","","","","","","","","","","","","","","","","","","","","","","","","","","","","","","","","","","","","","MET12405/15/20 03:54:02 METAR KPHL 150854Z 26008KT 10SM SCT070 BKN110 BKN140 17/15 A3001 RMK AO2 SLP162 60001 T01670150 55002 (DH)","FM-15","7","","","","","","","","","","","","","","","","","","","","","","","","","","","","2009-07-30"
"72408013739","2020-05-15T04:54:00","FM-15","7","","","","","","","","","","","","","","","","","","","","","","","","","","","","","","","","","","","","","","30.02","60","63","0.04","-RA:02 |RA |RA","","","90","30.02","SCT:04 70 BKN:07 85 OVC:08 130","29.99","9.00","61","220","","18","","","","","","","","","","","","","","","","","","","","","","","","","","","","","","","","","","","","","MET12705/15/20 04:54:02 METAR KPHL 150954Z 22016KT 9SM -RA SCT070 BKN085 OVC130 17/16 A3002 RMK AO2 RAB01 SLP165 P0004 T01720156 (DH)","FM-15","7","","","","","","","","","","","","","","","","","","","","","","","","","","","","2009-07-30"
"72408013739","2020-05-15T05:54:00","FM-15","7","","","","","","","","","","","","","","","","","","","","","","","","","","","","","","","","","","","","","","30.03","60","64","0.01","-RA:02 |RA |RA","","","87","30.03","FEW:02 65 SCT:04 80 OVC:08 100","30.00","10.00","62","240","","8","","","","","","","","","","","","","","","","","","","","","","","","","","","","","","","","","","","","","MET13205/15/20 05:54:02 METAR KPHL 151054Z 24007KT 10SM -RA FEW065 SCT080 OVC100 18/16 A3003 RMK AO2 RAE13B41 SLP169 P0001 T01780156 (GAH)","FM-15","7","","","","","","","","","","","","","","","","","","","","","","","","","","","","2009-07-30"
"72408013739","2020-05-15T06:54:00","FM-15","7","","","","","","","","","","","","","","","","","","","","","","","","","","","","","","","","","","","","","","30.05","61","64","T","","-0.04","3","90","30.05","FEW:02 85 OVC:08 100","30.02","10.00","62","240","","7","","","","","","","","","","","","","","","","","","","","","","","","","","","","","","","","","","","","","MET14805/15/20 06:54:02 METAR KPHL 151154Z 24006KT 10SM FEW085 OVC100 18/16 A3005 RMK AO2 RAE27 SLP176 P0000 60006 70006 T01780161 10178 20167 53014 (GAH)","FM-15","7","","","","","","","","","","","","","","","","","","","","","","","","","","","","2009-07-30"
"72408013739","2020-05-15T07:54:00","FM-15","7","","","","","","","","","","","","","","","","","","","","","","","","","","","","","","","","","","","","","","30.06","61","65","0.00","","","","87","30.06","FEW:02 65 BKN:07 100 OVC:08 120","30.03","10.00","63","230","","9","","","","","","","","","","","","","","","","","","","","","","","","","","","","","","","","","","","","","MET11305/15/20 07:54:02 METAR KPHL 151254Z 23008KT 10SM FEW065 BKN100 OVC120 18/16 A3006 RMK AO2 SLP178 T01830161 (GAH)","FM-15","7","","","","","","","","","","","","","","","","","","","","","","","","","","","","2009-07-30"
"72408013739","2020-05-15T08:54:00","FM-15","7","","","","","","","","","","","","","","","","","","","","","","","","","","","","","","","","","","","","","","30.04","62","68","0.00","","","","81","30.04","FEW:02 65 SCT:04 110 BKN:07 150","30.01","10.00","64","230","","11","","","","","","","","","","","","","","","","","","","","","","","","","","","","","","","","","","","","","MET11305/15/20 08:54:02 METAR KPHL 151354Z 23010KT 10SM FEW065 SCT110 BKN150 20/17 A3004 RMK AO2 SLP172 T02000167 (GAH)","FM-15","7","","","","","","","","","","","","","","","","","","","","","","","","","","","","2009-07-30"
"72408013739","2020-05-15T09:54:00","FM-15","7","","","","","","","","","","","","","","","","","","","","","","","","","","","","","","","","","","","","","","30.03","61","71","0.00","","+0.02","8","71","30.03","FEW:02 100 BKN:07 160","30.00","10.00","65","220","","13","","","","","","","","","","","","","","","","","","","","","","","","","","","","","","","","","","","","","MET11205/15/20 09:54:02 METAR KPHL 151454Z 22011KT 10SM FEW100 BKN160 22/16 A3003 RMK AO2 SLP168 T02170161 58007 (GAH)","FM-15","7","","","","","","","","","","","","","","","","","","","","","","","","","","","","2009-07-30"
"72408013739","2020-05-15T10:54:00","FM-15","7","","","","","","","","","","","","","","","","","","","","","","","","","","","","","","","","","","","","","","30.02","62","76","0.00","","","","62","30.01","FEW:02 100 BKN:07 160 BKN:07 250","29.99","10.00","67","230","","13","","","","","","","","","","","","","","","","","","","","","","","","","","","","","","","","","","","","","MET11305/15/20 10:54:02 METAR KPHL 151554Z 23011KT 10SM FEW100 BKN160 BKN250 24/17 A3002 RMK AO2 SLP164 T02440167 (GAH)","FM-15","7","","","","","","","","","","","","","","","","","","","","","","","","","","","","2009-07-30"
"72408013739","2020-05-15T11:54:00","FM-15","7","","","","","","","","","","","","","","","","","","","","","","","","","","","","","","","","","","","","","","29.99","61","79","0.00","","","","54","29.98","FEW:02 100 SCT:04 170 BKN:07 250","29.96","10.00","68","250","","14","","","","","","","","","","","","","","","","","","","","","","","","","","","","","","","","","","","","","MET11305/15/20 11:54:02 METAR KPHL 151654Z 25012KT 10SM FEW100 SCT170 BKN250 26/16 A2999 RMK AO2 SLP154 T02610161 (GAH)","FM-15","7","","","","","","","","","","","","","","","","","","","","","","","","","","","","2009-07-30"
"72408013739","2020-05-15T12:54:00","FM-15","7","","","","","","","","","","","","","","","","","","","","","","","","","","","","","","","","","","","","","","29.97","59","82","0.00","","+0.06","8","46","29.96","FEW:02 42 FEW:02 170 BKN:07 250","29.94","10.00","68","230","","15","","","","","","","","","","","","","","","","","","","","","","","","","","","","","","","","","","","","","MET13105/15/20 12:54:02 METAR KPHL 151754Z 23013KT 10SM FEW042 FEW170 BKN250 28/15 A2997 RMK AO2 SLP147 T02780150 10278 20178 58022 (GAH)","FM-15","7","","","","","","","","","","","","","","","","","","","","","","","","","","","","2009-07-30"
"72408013739","2020-05-15T13:54:00","FM-15","7","","","","","","","","","","","","","","","","","","","","","","","","","","","","","","","","","","","","","","29.94","57","83","0.00","","","","41","29.94","FEW:02 50 SCT:04 250","29.91","10.00","67","220","","14","","","","","","","","","","","","","","","","","","","","","","","","","","","","","","","","","","","","","MET10605/15/20 13:54:02 METAR KPHL 151854Z 22012KT 10SM FEW050 SCT250 28/14 A2994 RMK AO2 SLP139 T02830139 (GAH)","FM-15","7","","","","","","","","","","","","","","","","","","","","","","","","","","","","2009-07-30"
"72408013739","2020-05-15T14:54:00","FM-15","7","","","","","","","","","","","","","","","","","","","","","","","","","","","","","","","","","","","","","","29.92","58","84","0.00","","","","41","29.92","CLR:00","29.89","10.00","68","250","","17","","","","","","","","","","","","","","","","","","","","","","","","","","","","","","","","","","","","","MET09505/15/20 14:54:02 METAR KPHL 151954Z 25015KT 10SM CLR 29/14 A2992 RMK AO2 SLP131 T02890144 (SS)","FM-15","7","","","","","","","","","","","","","","","","","","","","","","","","","","","","2009-07-30"
"72408013739","2020-05-15T15:54:00","FM-15","7","","","","","","","","","","","","","","","","","","","","","","","","","","","","","","","","","","","","","","29.89","57","85","0.00","","+0.08","8","39","29.88","FEW:02 50","29.86","10.00","68","210","","15","","","","","","","","","","","","","","","","","","","","","","","","","","","","","","","","","","","","","MET10405/15/20 15:54:02 METAR KPHL 152054Z 21013KT 10SM FEW050 29/14 A2989 RMK AO2 SLP120 T02940139 58027 (SS)","FM-15","7","","","","","","","","","","","","","","","","","","","","","","","","","","","","2009-07-30"
"72408013739","2020-05-15T16:54:00","FM-15","7","","","","","","","","","","","","","","","","","","","","","","","","","","","","","","","","","","","","","","29.87","55","85","0.00","","","","36","29.87","FEW:02 60","29.84","10.00","67","220","24","17","","","","","","","","","","","","","","","","","","","","","","","","","","","","","","","","","","","","","MET10105/15/20 16:54:02 METAR KPHL 152154Z 22015G21KT 10SM FEW060 29/13 A2987 RMK AO2 SLP115 T02940128 (SS)","FM-15","7","","","","","","","","","","","","","","","","","","","","","","","","","","","","2009-07-30"
"72408013739","2020-05-15T17:54:00","FM-15","7","","","","","","","","","","","","","","","","","","","","","","","","","","","","","","","","","","","","","","29.86","52","83","0.00","","","","34","29.86","FEW:02 70","29.83","10.00","65","220","29","21","","","","","","","","","","","","","","","","","","","","","","","","","","","","","","","","","","","","","MET10105/15/20 17:54:02 METAR KPHL 152254Z 22018G25KT 10SM FEW070 28/11 A2986 RMK AO2 SLP111 T02830111 (SS)","FM-15","7","","","","","","","","","","","","","","","","","","","","","","","","","","","","2009-07-30"
"72408013739","2020-05-15T18:54:00","FM-15","7","","","","","","","","","","","","","","","","","","","","","","","","","","","","","","","","","","","","","","29.85","55","80","0.00","","+0.04","6","42","29.85","FEW:02 150","29.82","10.00","65","210","","14","","","","","","","","","","","","","","","","","","","","","","","","","","","","","","","","","","","","","MET11605/15/20 18:54:02 METAR KPHL 152354Z 21012KT 10SM FEW150 27/13 A2985 RMK AO2 SLP108 T02670128 10294 20267 56013 (SS)","FM-15","7","","","","","","","","","","","","","","","","","","","","","","","","","","","","2009-07-30"
"72408013739","2020-05-15T19:54:00","FM-15","7","","","","","","","","","","","","","","","","","","","","","","","","","","","","","","","","","","","","","","29.86","57","77","0.00","","","","50","29.85","SCT:04 150","29.83","10.00","65","200","","11","","","","","","","","","","","","","","","","","","","","","","","","","","","","","","","","","","","","","MET09305/15/20 19:54:01 METAR KPHL 160054Z 20010KT 10SM SCT150 25/14 A2986 RMK AO2 SLP109 T02500139","FM-15","7","","","","","","","","","","","","","","","","","","","","","","","","","","","","2009-07-30"
"72408013739","2020-05-15T20:54:00","FM-15","7","","","","","","","","","","","","","","","","","","","","","","","","","","","","","","","","","","","","","","29.86","57","76","0.00","","","","52","29.86","SCT:04 150","29.83","10.00","65","200","","15","","","","","","","","","","","","","","","","","","","","","","","","","","","","","","","","","","","","","MET09305/15/20 20:54:01 METAR KPHL 160154Z 20013KT 10SM SCT150 24/14 A2986 RMK AO2 SLP111 T02440139","FM-15","7","","","","","","","","","","","","","","","","","","","","","","","","","","","","2009-07-30"
"72408013739","2020-05-15T21:54:00","FM-15","7","","","","","","","","","","","","","","","","","","","","","","","","","","","","","","","","","","","","","","29.88","56","76","0.00","","-0.03","3","50","29.88","SCT:04 100","29.85","10.00","64","220","","17","","","","","","","","","","","","","","","","","","","","","","","","","","","","","","","","","","","","","MET09905/15/20 21:54:01 METAR KPHL 160254Z 22015KT 10SM SCT100 24/13 A2988 RMK AO2 SLP117 T02440133 53009","FM-15","7","","","","","","","","","","","","","","","","","","","","","","","","","","","","2009-07-30"
"72408013739","2020-05-15T22:54:00","FM-15","7","","","","","","","","","","","","","","","","","","","","","","","","","","","","","","","","","","","","","","29.89","56","75","0.00","","","","52","29.88","BKN:07 150","29.86","10.00","64","230","","16","","","","","","","","","","","","","","","","","","","","","","","","","","","","","","","","","","","","","MET09305/15/20 22:54:02 METAR KPHL 160354Z 23014KT 10SM BKN150 24/13 A2989 RMK AO2 SLP120 T02390133","FM-15","7","","","","","","","","","","","","","","","","","","","","","","","","","","","","2009-07-30"
"72408013739","2020-05-15T23:54:00","FM-15","7","","","","","","","","","","","","","","","","","","","","","","","","","","","","","","","","","","","","","","29.90","56","74","0.00","","","","54","29.90","BKN:07 180","29.87","10.00","63","240","","18","","","","","","","","","","","","","","","","","","","","","","","","","","","","","","","","","","","","","MET10305/15/20 23:54:02 METAR KPHL 160454Z 24016KT 10SM BKN180 23/13 A2990 RMK AO2 SLP124 T02330133 402940167","FM-15","7","","","","","","","","","","","","","","","","","","","","","","","","","","","","2009-07-30"
"72408013739","2020-05-16T00:54:00","FM-15","7","","","","","","","","","","","","","","","","","","","","","","","","","","","","","","","","","","","","","","29.90","57","71","0.00","","-0.02","1","61","29.90","OVC:08 110","29.87","10.00","63","230","","8","","","","","","","","","","","","","","","","","","","","","","","","","","","","","","","","","","","","","MET11705/16/20 00:54:02 METAR KPHL 160554Z 23007KT 10SM OVC110 22/14 A2990 RMK AO2 SLP124 T02170139 10267 20217 51007 (JOC)","FM-15","7","","","","","","","","","","","","","","","","","","","","","","","","","","","","2009-07-30"
"72408013739","2020-05-16T01:54:00","FM-15","7","","","","","","","","","","","","","","","","","","","","","","","","","","","","","","","","","","","","","","29.90","57","71","0.00","","","","61","29.89","OVC:08 110","29.87","10.00","63","240","","8","","","","","","","","","","","","","","","","","","","","","","","","","","","","","","","","","","","","","MET09905/16/20 01:54:02 METAR KPHL 160654Z 24007KT 10SM OVC110 22/14 A2990 RMK AO2 SLP123 T02170139 (JOC)","FM-15","7","","","","","","","","","","","","","","","","","","","","","","","","","","","","2009-07-30"
"72408013739","2020-05-16T02:54:00","FM-15","7","","","","","","","","","","","","","","","","","","","","","","","","","","","","","","","","","","","","","","29.90","57","70","0.00","","","","64","29.90","BKN:07 80","29.87","10.00","62","260","","5","","","","","","","","","","","","","","","","","","","","","","","","","","","","","","","","","","","","","MET09905/16/20 02:54:02 METAR KPHL 160754Z 26004KT 10SM BKN080 21/14 A2990 RMK AO2 SLP124 T02110139 (JOC)","FM-15","7","","","","","","","","","","","","","","","","","","","","","","","","","","","","2009-07-30"
"72408013739","2020-05-16T03:54:00","FM-15","7","","","","","","","","","","","","","","","","","","","","","","","","","","","","","","","","","","","","","","29.91","57","70","0.00","","-0.01","3","64","29.91","BKN:07 70","29.88","10.00","62","260","","3","","","","","","","","","","","","","","","","","","","","","","","","","","","","","","","","","","","","","MET10505/16/20 03:54:02 METAR KPHL 160854Z 26003KT 10SM BKN070 21/14 A2991 RMK AO2 SLP128 T02110139 53004 (JOC)","FM-15","7","","","","","","","","","","","","","","","","","","","","","","","","","","","","2009-07-30"
"72408013739","2020-05-16T04:54:00","FM-15","7","","","","","","","","","","","","","","","","","","","","","","","","","","","","","","","","","","","","","","29.94","59","70","0.00","","","","68","29.94","FEW:02 37 BKN:07 55 BKN:07 230","29.91","10.00","63","330","","9","","","","","","","","","","","","","","","","","","","","","","","","","","","","","","","","","","","","","MET11305/16/20 04:54:02 METAR KPHL 160954Z 33008KT 10SM FEW037 BKN055 BKN230 21/15 A2994 RMK AO2 SLP138 T02110150 (JOC)","FM-15","7","","","","","","","","","","","","","","","","","","","","","","","","","","","","2009-07-30"
"72408013739","2020-05-16T05:54:00","FM-15","7","","","","","","","","","","","","","","","","","","","","","","","","","","","","","","","","","","","","","","29.98","59","69","0.00","","","","70","29.98","FEW:02 20 SCT:04 40 BKN:07 50","29.95","10.00","63","350","","7","","","","","","","","","","","","","","","","","","","","","","","","","","","","","","","","","","","","","MET11205/16/20 05:54:02 METAR KPHL 161054Z 35006KT 10SM FEW020 SCT040 BKN050 21/15 A2998 RMK AO2 SLP151 T02060150 (DH)","FM-15","7","","","","","","","","","","","","","","","","","","","","","","","","","","","","2009-07-30"
"72408013739","2020-05-16T06:54:00","FM-15","7","","","","","","","","","","","","","","","","","","","","","","","","","","","","","","","","","","","","","","30.00","57","68","0.00","","-0.09","1","68","30.00","FEW:02 27 SCT:04 32 BKN:07 45","29.97","10.00","62","360","","9","","","","","","","","","","","","","","","","","","","","","","","","","","","","","","","","","","","","","MET13005/16/20 06:54:02 METAR KPHL 161154Z 36008KT 10SM FEW027 SCT032 BKN045 20/14 A3000 RMK AO2 SLP159 T02000139 10222 20200 51030 (DH)","FM-15","7","","","","","","","","","","","","","","","","","","","","","","","","","","","","2009-07-30"
"72408013739","2020-05-16T07:54:00","FM-15","7","","","","","","","","","","","","","","","","","","","","","","","","","","","","","","","","","","","","","","30.03","55","70","0.00","","","","59","30.03","FEW:02 28 SCT:04 50 BKN:07 70","30.00","10.00","61","360","","14","","","","","","","","","","","","","","","","","","","","","","","","","","","","","","","","","","","","","MET11205/16/20 07:54:02 METAR KPHL 161254Z 36012KT 10SM FEW028 SCT050 BKN070 21/13 A3003 RMK AO2 SLP169 T02110128 (DH)","FM-15","7","","","","","","","","","","","","","","","","","","","","","","","","","","","","2009-07-30"
"72408013739","2020-05-16T08:54:00","FM-15","7","","","","","","","","","","","","","","","","","","","","","","","","","","","","","","","","","","","","","","30.06","53","70","0.00","","","","55","30.05","FEW:02 30 SCT:04 44 SCT:04 65","30.03","10.00","60","360","","13","","","","","","","","","","","","","","","","","","","","","","","","","","","","","","","","","","","","","MET11205/16/20 08:54:02 METAR KPHL 161354Z 36011KT 10SM FEW030 SCT044 SCT065 21/12 A3006 RMK AO2 SLP177 T02110117 (DH)","FM-15","7","","","","","","","","","","","","","","","","","","","","","","","","","","","","2009-07-30"
"72408013739","2020-05-16T09:54:00","FM-15","7","","","","","","","","","","","","","","","","","","","","","","","","","","","","","","","","","","","","","","30.07","51","70","0.00","","-0.06","1","51","30.06","FEW:02 35 FEW:02 45 FEW:02 130","30.04","10.00","59","360","","11","","","","","","","","","","","","","","","","","","","","","","","","","","","","","","","","","","","","","MET11805/16/20 09:54:02 METAR KPHL 161454Z 36010KT 10SM FEW035 FEW045 FEW130 21/11 A3007 RMK AO2 SLP181 T02110106 51022 (DH)","FM-15","7","","","","","","","","","","","","","","","","","","","","","","","","","","","","2009-07-30"
"72408013739","2020-05-16T10:54:00","FM-15","7","","","","","","","","","","","","","","","","","","","","","","","","","","","","","","","","","","","","","","30.08","51","73","0.00","","","","46","30.07","FEW:02 35 BKN:07 250","30.05","10.00","60","340","","10","","","","","","","","","","","","","","","","","","","","","","","","","","","","","","","","","","","","","MET10505/16/20 10:54:02 METAR KPHL 161554Z 34009KT 10SM FEW035 BKN250 23/11 A3008 RMK AO2 SLP184 T02280106 (DH)","FM-15","7","","","","","","","","","","","","","","","","","","","","","","","","","","","","2009-07-30"
"72408013739","2020-05-16T11:54:00","FM-15","7","","","","","","","","","","","","","","","","","","","","","","","","","","","","","","","","","","","","","","30.08","51","75","0.00","","","","43","30.07","FEW:02 50 BKN:07 250","30.05","10.00","61","320","","10","","","","","","","","","","","","","","","","","","","","","","","","","","","","","","","","","","","","","MET10505/16/20 11:54:02 METAR KPHL 161654Z 32009KT 10SM FEW050 BKN250 24/11 A3008 RMK AO2 SLP184 T02390106 (DH)","FM-15","7","","","","","","","","","","","","","","","","","","","","","","","","","","","","2009-07-30"
"72408013739","2020-05-16T12:54:00","FM-15","7","","","","","","","","","","","","","","","","","","","","","","","","","","","","","","","","","","","","","","30.07","51","75","0.00","","-0.01","0","43","30.07","FEW:02 50 BKN:07 250","30.04","10.00","61","VRB","","7","","","","","","","","","","","","","","","","","","","","","","","","","","","","","","","","","","","","","MET12305/16/20 12:54:02 METAR KPHL 161754Z VRB06KT 10SM FEW050 BKN250 24/11 A3007 RMK AO2 SLP182 T02390106 10244 20200 50002 (DH)","FM-15","7","","","","","","","","","","","","","","","","","","","","","","","","","","","","2009-07-30"
"72408013739","2020-05-16T13:54:00","FM-15","7","","","","","","","","","","","","","","","","","","","","","","","","","","","","","","","","","","","","","","30.08","49","77","0.00","","","","37","30.07","FEW:02 55 BKN:07 250","30.05","10.00","61","050","","3","","","","","","","","","","","","","","","","","","","","","","","","","","","","","","","","","","","","","MET10505/16/20 13:54:02 METAR KPHL 161854Z 05003KT 10SM FEW055 BKN250 25/09 A3008 RMK AO2 SLP184 T02500094 (SS)","FM-15","7","","","","","","","","","","","","","","","","","","","","","","","","","","","","2009-07-30"
"72408013739","2020-05-16T14:54:00","FM-15","7","","","","","","","","","","","","","","","","","","","","","","","","","","","","","","","","","","","","","","30.07","47","78","0.00","","","","33","30.07","FEW:02 70 SCT:04 250","30.04","10.00","61","110","","3","","","","","","","","","","","","","","","","","","","","","","","","","","","","","","","","","","","","","MET10505/16/20 14:54:02 METAR KPHL 161954Z 11003KT 10SM FEW070 SCT250 26/08 A3007 RMK AO2 SLP183 T02560083 (SS)","FM-15","7","","","","","","","","","","","","","","","","","","","","","","","","","","","","2009-07-30"
"72408013739","2020-05-16T15:54:00","FM-15","7","","","","","","","","","","","","","","","","","","","","","","","","","","","","","","","","","","","","","","30.08","51","77","0.00","","-0.00","1","40","30.07","FEW:02 70 BKN:07 250","30.05","10.00","62","110","","8","","","","","","","","","","","","","","","","","","","","","","","","","","","","","","","","","","","","","MET11105/16/20 15:54:02 METAR KPHL 162054Z 11007KT 10SM FEW070 BKN250 25/11 A3008 RMK AO2 SLP184 T02500106 51001 (SS)","FM-15","7","","","","","","","","","","","","","","","","","","","","","","","","","","","","2009-07-30"
"72408013739","2020-05-16T16:54:00","FM-15","7","","","","","","","","","","","","","","","","","","","","","","","","","","","","","","","","","","","","","","30.08","50","76","0.00","","","","40","30.07","FEW:02 55 BKN:07 250","30.05","10.00","61","110","","7","","","","","","","","","","","","","","","","","","","","","","","","","","","","","","","","","","","","","MET10505/16/20 16:54:02 METAR KPHL 162154Z 11006KT 10SM FEW055 BKN250 24/10 A3008 RMK AO2 SLP184 T02440100 (SS)","FM-15","7","","","","","","","","","","","","","","","","","","","","","","","","","","","","2009-07-30"
"72408013739","2020-05-16T17:54:00","FM-15","7","","","","","","","","","","","","","","","","","","","","","","","","","","","","","","","","","","","","","","30.09","52","75","0.00","","","","45","30.09","FEW:02 70 BKN:07 250","30.06","10.00","62","130","","3","","","","","","","","","","","","","","","","","","","","","","","","","","","","","","","","","","","","","MET10505/16/20 17:54:02 METAR KPHL 162254Z 13003KT 10SM FEW070 BKN250 24/11 A3009 RMK AO2 SLP190 T02390111 (SS)","FM-15","7","","","","","","","","","","","","","","","","","","","","","","","","","","","","2009-07-30"
"72408013739","2020-05-16T18:54:00","FM-15","7","","","","","","","","","","","","","","","","","","","","","","","","","","","","","","","","","","","","","","30.11","51","71","0.00","","-0.04","3","49","30.11","FEW:02 70 BKN:07 250","30.08","10.00","60","120","16","11","","","","","","","","","","","","","","","","","","","","","","","","","","","","","","","","","","","","","MET12605/16/20 18:54:02 METAR KPHL 162354Z 12010G14KT 10SM FEW070 BKN250 22/11 A3011 RMK AO2 SLP195 T02170106 10261 20217 53012 (SS)","FM-15","7","","","","","","","","","","","","","","","","","","","","","","","","","","","","2009-07-30"
"72408013739","2020-05-16T19:54:00","FM-15","7","","","","","","","","","","","","","","","","","","","","","","","","","","","","","","","","","","","","","","30.14","50","67","0.00","","","","55","30.14","BKN:07 250","30.11","10.00","58","140","","9","","","","","","","","","","","","","","","","","","","","","","","","","","","","","","","","","","","","","MET09305/16/20 19:54:01 METAR KPHL 170054Z 14008KT 10SM BKN250 19/10 A3014 RMK AO2 SLP206 T01940100","FM-15","7","","","","","","","","","","","","","","","","","","","","","","","","","","","","2009-07-30"
"72408013739","2020-05-16T20:54:00","FM-15","7","","","","","","","","","","","","","","","","","","","","","","","","","","","","","","","","","","","","","","30.16","50","66","0.00","","","","56","30.16","BKN:07 240","30.13","10.00","57","000","","0","","","","","","","","","","","","","","","","","","","","","","","","","","","","","","","","","","","","","MET09305/16/20 20:54:01 METAR KPHL 170154Z 00000KT 10SM BKN240 19/10 A3016 RMK AO2 SLP213 T01890100","FM-15","7","","","","","","","","","","","","","","","","","","","","","","","","","","","","2009-07-30"
"72408013739","2020-05-16T21:54:00","FM-15","7","","","","","","","","","","","","","","","","","","","","","","","","","","","","","","","","","","","","","","30.17","51","64","0.00","","-0.06","1","63","30.16","BKN:07 230","30.14","10.00","57","120","","3","","","","","","","","","","","","","","","","","","","","","","","","","","","","","","","","","","","","","MET09905/16/20 21:54:01 METAR KPHL 170254Z 12003KT 10SM BKN230 18/11 A3017 RMK AO2 SLP215 T01780106 51020","FM-15","7","","","","","","","","","","","","","","","","","","","","","","","","","","","","2009-07-30"
"72408013739","2020-05-16T22:54:00","FM-15","7","","","","","","","","","","","","","","","","","","","","","","","","","","","","","","","","","","","","","","30.18","50","63","0.00","","","","63","30.18","FEW:02 70 SCT:04 220","30.15","10.00","56","170","","6","","","","","","","","","","","","","","","","","","","","","","","","","","","","","","","","","","","","","MET10005/16/20 22:54:02 METAR KPHL 170354Z 17005KT 10SM FEW070 SCT220 17/10 A3018 RMK AO2 SLP219 T01720100","FM-15","7","","","","","","","","","","","","","","","","","","","","","","","","","","","","2009-07-30"
"72408013739","2020-05-16T23:54:00","FM-15","7","","","","","","","","","","","","","","","","","","","","","","","","","","","","","","","","","","","","","","30.18","49","60","0.00","","","","67","30.18","FEW:02 70 SCT:04 250","30.15","10.00","54","140","","5","","","","","","","","","","","","","","","","","","","","","","","","","","","","","","","","","","","","","MET11005/16/20 23:54:02 METAR KPHL 170454Z 14004KT 10SM FEW070 SCT250 16/09 A3018 RMK AO2 SLP219 T01560094 402610156","FM-15","7","","","","","","","","","","","","","","","","","","","","","","","","","","","","2009-07-30"
"72408013739","2020-05-10T01:00:00","FM-12","4","","","","","","","","","","","","","","","","","","","","","","","","","","","","","","","","","","","","","","","20","40","","","0.00","9","45","30.16","","30.09","9.94","33","250","","15","","","","","","","","","","","","","","","","","","","","","","","","","","","","","","","","","","","","","SYN08072408 32966 02513 10044 21067 30191 40213 50000 90554 333 10072 20017 555 91006=","FM-12","4","","","","","","","","","","","","","","","","","","","","","","","","","","","","2009-07-30"
"72408013739","2020-05-10T07:00:00","FM-12","4","","","","","","","","","","","","","","","","","","","","","","","","","","","","","","","","","","","","","","","25","46","","","-0.04","3","44","30.18","","30.11","9.94","38","240","","15","","","","","","","","","","","","","","","","","","","","","","","","","","","","","","","","","","","","","SYN08072408 32966 22413 10078 21039 30198 40220 53012 91154 333 10094 20039 555 91012=","FM-12","4","","","","","","","","","","","","","","","","","","","","","","","","","","","","2009-07-30"
"72408013739","2020-05-10T13:00:00","FM-12","4","","","","","","","","","","","","","","","","","","","","","","","","","","","","","","","","","","","","","","","23","62","","","+0.06","8","22","30.10","","30.03","9.94","45","230","","17","","","","","","","","","","","","","","","","","","","","","","","","","","","","","","","","","","","","","SYN08672408 32966 42315 10167 21050 30171 40192 58021 91754 333 10167 20072 91021 555 91018=","FM-12","4","","","","","","","","","","","","","","","","","","","","","","","","","","","","2009-07-30"
"72408013739","2020-05-10T19:00:00","FM-12","4","","","","","","","","","","","","","","","","","","","","","","","","","","","","","","","","","","","","","","","28","60","","","+0.01","5","30","30.01","","29.94","9.94","46","220","","10","","","","","","","","","","","","","","","","","","","","","","","","","","","","","","","","","","","","","SYN08072408 32966 42209 10156 21022 30140 40162 55004 92354 333 10178 20039 555 91100=","FM-12","4","","","","","","","","","","","","","","","","","","","","","","","","","","","","2009-07-30"
"72408013739","2020-05-11T01:00:00","FM-12","4","","","","","","","","","","","","","","","","","","","","","","","","","","","","","","","","","","","","","","","40","49","","","+0.06","8","71","29.94","","29.88","9.94","45","200","","5","","","","","","","","","","","","","","","","","","","","","","","","","","","","","","","","","","","","","SYN08072408 32966 02004 10094 20044 30117 40139 58022 90554 333 10156 20039 555 91106=","FM-12","4","","","","","","","","","","","","","","","","","","","","","","","","","","","","2009-07-30"
"72408013739","2020-05-11T07:00:00","FM-12","4","","","","","","","","","","","","","","","","","","","","","","","","","","","","","","","","","","","","","","","46","50","","||RA","-0.06","3","86","29.94","41","29.88","6.84","48","250","","20","","","","","","","","","","","","","","","","","","","","","","","","","","","","","","","","","","","","","SYN09872408 11661 82517 10100 20078 30117 40138 53019 69951 761// 91154 333 10178 20083 70005 555 91112=","FM-12","4","","","","","","","","","","","","","","","","","","","","","","","","","","","","2009-07-30"
"72408013739","2020-05-11T13:00:00","FM-12","4","","","","","","","","","","","","","","","","","","","","","","","","","","","","","","","","","","","","","","","34","58","","||RA","+0.01","5","41","29.86","57","29.80","9.94","47","270","","20","","","","","","","","","","","","","","","","","","","","","","","","","","","","","","","","","","","","","SYN09872408 11766 62717 10144 20011 30090 40112 55005 69951 761// 91754 333 10161 20100 91023 555 91118=","FM-12","4","","","","","","","","","","","","","","","","","","","","","","","","","","","","2009-07-30"
"72408013739","2020-05-11T19:00:00","FM-12","4","","","","","","","","","","","","","","","","","","","","","","","","","","","","","","","","","","","","","","","30","51","","","-0.08","1","44","29.94","57","29.88","9.94","42","290","","17","","","","","","","","","","","","","","","","","","","","","","","","","","","","","","","","","","","","","SYN09272408 12766 62915 10106 21011 30117 40139 51026 69951 92354 333 10167 20083 91026 555 91200=","FM-12","4","","","","","","","","","","","","","","","","","","","","","","","","","","","","2009-07-30"
"72408013739","2020-05-12T01:00:00","FM-12","4","","","","","","","","","","","","","","","","","","","","","","","","","","","","","","","","","","","","","","","32","46","","","-0.04","1","58","30.03","57","29.96","9.94","40","270","","15","","","","","","","","","","","","","","","","","","","","","","","","","","","","","","","","","","","","","SYN08072408 32766 42713 10078 20000 30147 40169 51012 90554 333 10106 20078 555 91206=","FM-12","4","","","","","","","","","","","","","","","","","","","","","","","","","","","","2009-07-30"
"72408013739","2020-05-12T07:00:00","FM-12","4","","","","","","","","","","","","","","","","","","","","","","","","","","","","","","","","","","","","","","","31","46","","","-0.06","1","56","30.11","57","30.06","9.94","40","280","","14","","","","","","","","","","","","","","","","","","","","","","","","","","","","","","","","","","","","","SYN09272408 32766 22812 10078 21006 30178 40197 51022 91154 333 10167 20056 70010 91017 555 91212=","FM-12","4","","","","","","","","","","","","","","","","","","","","","","","","","","","","2009-07-30"
"72408013739","2020-05-12T13:00:00","FM-12","4","","","","","","","","","","","","","","","","","","","","","","","","","","","","","","","","","","","","","","","27","58","","","+0.04","8","31","30.07","57","30.01","9.94","45","290","","17","","","","","","","","","","","","","","","","","","","","","","","","","","","","","","","","","","","","","SYN08672408 32766 42915 10144 21028 30161 40182 58012 91754 333 10144 20078 91020 555 91218=","FM-12","4","","","","","","","","","","","","","","","","","","","","","","","","","","","","2009-07-30"
"72408013739","2020-05-12T19:00:00","FM-12","4","","","","","","","","","","","","","","","","","","","","","","","","","","","","","","","","","","","","","","","20","57","","","-0.06","3","24","30.11","","30.04","9.94","42","290","","11","","","","","","","","","","","","","","","","","","","","","","","","","","","","","","","","","","","","","SYN08072408 32966 22910 10139 21067 30174 40197 53022 92354 333 10161 20056 555 91300=","FM-12","4","","","","","","","","","","","","","","","","","","","","","","","","","","","","2009-07-30"
"72408013739","2020-05-13T01:00:00","FM-12","4","","","","","","","","","","","","","","","","","","","","","","","","","","","","","","","","","","","","","","","27","47","","","-0.05","1","46","30.22","","30.15","9.94","39","360","","7","","","","","","","","","","","","","","","","","","","","","","","","","","","","","","","","","","","","","SYN08072408 32966 23606 10083 21028 30211 40234 51018 90554 333 10139 20056 555 91306=","FM-12","4","","","","","","","","","","","","","","","","","","","","","","","","","","","","2009-07-30"
"72408013739","2020-05-13T07:00:00","FM-12","4","","","","","","","","","","","","","","","","","","","","","","","","","","","","","","","","","","","","","","","26","48","","","-0.06","3","42","30.33","","30.27","9.94","39","060","","3","","","","","","","","","","","","","","","","","","","","","","","","","","","","","","","","","","","","","SYN08072408 32966 00603 10089 21033 30252 40272 53020 91154 333 10161 20050 555 91312=","FM-12","4","","","","","","","","","","","","","","","","","","","","","","","","","","","","2009-07-30"
"72408013739","2020-05-13T13:00:00","FM-12","4","","","","","","","","","","","","","","","","","","","","","","","","","","","","","","","","","","","","","","","31","61","","","+0.06","8","32","30.28","74","30.22","9.94","47","240","","14","","","","","","","","","","","","","","","","","","","","","","","","","","","","","","","","","","","","","SYN08672408 32866 42412 10161 21006 30232 40254 58019 91754 333 10167 20089 91016 555 91318=","FM-12","4","","","","","","","","","","","","","","","","","","","","","","","","","","","","2009-07-30"
"72408013739","2020-05-13T19:00:00","FM-12","4","","","","","","","","","","","","","","","","","","","","","","","","","","","","","","","","","","","","","","","25","63","","","","","24","30.24","","30.19","9.94","47","320","","8","","","","","","","","","","","","","","","","","","","","","","","","","","","","","","","","","","","","","SYN08072408 32966 03207 10172 21039 30222 40242 53000 92354 333 10189 20050 555 91400=","FM-12","4","","","","","","","","","","","","","","","","","","","","","","","","","","","","2009-07-30"
"72408013739","2020-05-14T01:00:00","FM-12","4","","","","","","","","","","","","","","","","","","","","","","","","","","","","","","","","","","","","","","","40","48","","","-0.00","1","74","30.30","","30.24","9.94","44","080","","3","","","","","","","","","","","","","","","","","","","","","","","","","","","","","","","","","","","","","SYN08072408 32966 00803 10089 20044 30242 40262 51001 90554 333 10172 20050 555 91406=","FM-12","4","","","","","","","","","","","","","","","","","","","","","","","","","","","","2009-07-30"
"72408013739","2020-05-14T07:00:00","FM-12","4","","","","","","","","","","","","","","","","","","","","","","","","","","","","","","","","","","","","","","","41","52","","","-0.01","3","66","30.33","","30.27","9.94","47","070","","6","","","","","","","","","","","","","","","","","","","","","","","","","","","","","","","","","","","","","SYN08072408 32966 40705 10111 20050 30249 40271 53005 91154 333 10189 20067 555 91412=","FM-12","4","","","","","","","","","","","","","","","","","","","","","","","","","","","","2009-07-30"
"72408013739","2020-05-14T13:00:00","FM-12","4","","","","","","","","","","","","","","","","","","","","","","","","","","","","","","","","","","","","","","","42","73","","","+0.09","6","33","30.19","74","30.14","9.94","57","220","","18","","","","","","","","","","","","","","","","","","","","","","","","","","","","","","","","","","","","","SYN08672408 32866 42216 10228 20056 30205 40225 56032 91754 333 10228 20111 91026 555 91418=","FM-12","4","","","","","","","","","","","","","","","","","","","","","","","","","","","","2009-07-30"
"72408013739","2020-05-14T19:00:00","FM-12","4","","","","","","","","","","","","","","","","","","","","","","","","","","","","","","","","","","","","","","","50","68","","","+0.03","6","53","30.09","41","30.03","9.94","58","220","","8","","","","","","","","","","","","","","","","","","","","","","","","","","","","","","","","","","","","","SYN08072408 32666 82207 10200 20100 30171 40191 56010 92354 333 10233 20067 555 91500=","FM-12","4","","","","","","","","","","","","","","","","","","","","","","","","","","","","2009-07-30"
"72408013739","2020-05-15T01:00:00","FM-12","4","","","","","","","","","","","","","","","","","","","","","","","","","","","","","","","","","","","","","","","54","62","","","+0.07","6","75","30.01","","29.96","9.94","58","210","","6","","","","","","","","","","","","","","","","","","","","","","","","","","","","","","","","","","","","","SYN08672408 12966 62105 10167 20122 30144 40164 56024 69901 90554 333 10200 20067 555 91506=","FM-12","4","","","","","","","","","","","","","","","","","","","","","","","","","","","","2009-07-30"
"72408013739","2020-05-15T07:00:00","FM-12","4","","","","","","","","","","","","","","","","","","","","","","","","","","","","","","","","","","","","","","","61","64","","","-0.04","3","90","30.05","","29.98","9.94","62","240","","7","","","","","","","","","","","","","","","","","","","","","","","","","","","","","","","","","","","","","SYN09272408 12966 82406 10178 20161 30154 40176 53014 60021 91154 333 10233 20167 70015 555 91512=","FM-12","4","","","","","","","","","","","","","","","","","","","","","","","","","","","","2009-07-30"
"72408013739","2020-05-15T13:00:00","FM-12","4","","","","","","","","","","","","","","","","","","","","","","","","","","","","","","","","","","","","","","","59","82","","","+0.06","8","46","29.96","41","29.91","9.94","68","230","","15","","","","","","","","","","","","","","","","","","","","","","","","","","","","","","","","","","","","","SYN08072408 32666 62313 10278 20150 30127 40147 58022 91754 333 10278 20178 555 91518=","FM-12","4","","","","","","","","","","","","","","","","","","","","","","","","","","","","2009-07-30"
"72408013739","2020-05-15T19:00:00","FM-12","4","","","","","","","","","","","","","","","","","","","","","","","","","","","","","","","","","","","","","","","55","80","","","+0.04","6","42","29.85","","29.78","9.94","65","210","","14","","","","","","","","","","","","","","","","","","","","","","","","","","","","","","","","","","","","","SYN08072408 32966 22112 10267 20128 30086 40108 56013 92354 333 10294 20167 555 91600=","FM-12","4","","","","","","","","","","","","","","","","","","","","","","","","","","","","2009-07-30"
"72408013739","2020-05-16T01:00:00","FM-12","4","","","","","","","","","","","","","","","","","","","","","","","","","","","","","","","","","","","","","","","57","71","","","-0.02","1","61","29.90","","29.83","9.94","63","230","","8","","","","","","","","","","","","","","","","","","","","","","","","","","","","","","","","","","","","","SYN08072408 32966 82307 10217 20139 30103 40124 51007 90554 333 10267 20167 555 91606=","FM-12","4","","","","","","","","","","","","","","","","","","","","","","","","","","","","2009-07-30"
"72408013739","2020-05-16T07:00:00","FM-12","4","","","","","","","","","","","","","","","","","","","","","","","","","","","","","","","","","","","","","","","57","68","","","-0.09","1","68","30.00","26","29.93","9.94","62","360","","9","","","","","","","","","","","","","","","","","","","","","","","","","","","","","","","","","","","","","SYN08072408 32566 63608 10200 20139 30137 40159 51030 91154 333 10294 20200 555 91612=","FM-12","4","","","","","","","","","","","","","","","","","","","","","","","","","","","","2009-07-30"
"72408013739","2020-05-16T13:00:00","FM-12","4","","","","","","","","","","","","","","","","","","","","","","","","","","","","","","","","","","","","","","","51","75","","","0.01","9","43","30.07","57","30.01","9.94","61","","","7","","","","","","","","","","","","","","","","","","","","","","","","","","","","","","","","","","","","","SYN08072408 32766 6//06 10239 20106 30161 40182 50002 91754 333 10244 20200 555 91618=","FM-12","4","","","","","","","","","","","","","","","","","","","","","","","","","","","","2009-07-30"
"72408013739","2020-05-16T19:00:00","FM-12","4","","","","","","","","","","","","","","","","","","","","","","","","","","","","","","","","","","","","","","","51","71","","","-0.04","3","49","30.11","74","30.04","9.94","60","120","","11","","","","","","","","","","","","","","","","","","","","","","","","","","","","","","","","","","","","","SYN08672408 32866 61210 10217 20106 30174 40195 53012 92354 333 10261 20200 91014 555 91700=","FM-12","4","","","","","","","","","","","","","","","","","","","","","","","","","","","","2009-07-30"